{
"type": "FeatureCollection",
"name": "access_zones",
"crs": { "type": "name", "properties": { "name": "urn:ogc:def:crs:OGC:1.3:CRS84" } },
"features": [
{ "type": "Feature", "properties": { "element": "node", "id": 248420920, "name": "Kalaignar Karunanidhi Nagar", "nearest_node": 7171465295, "reachable_nodes": 23475, "utilization": "Balanced", "density_score": 2265, "access_score": 2, "density_class": 3, "util_score": 2, "underserved_score": 7 }, "geometry": { "type": "Polygon", "coordinates": [ [ [ 80.232882227269783, 13.038732718663432 ], [ 80.23275719773207, 13.036073547824488 ], [ 80.232366935260814, 13.033439196590313 ], [ 80.231715206586657, 13.030855034493591 ], [ 80.230808295958568, 13.028345946941739 ], [ 80.229654944326043, 13.025936095614611 ], [ 80.228266264894771, 13.023648685859461 ], [ 80.226655635878743, 13.021505743320084 ], [ 80.224838571489997, 13.019527901946981 ], [ 80.222832572415243, 13.017734205425286 ], [ 80.220656957223198, 13.016141923927208 ], [ 80.218332676328444, 13.014766387947953 ], [ 80.215882110302886, 13.013620840819344 ], [ 80.213328854473986, 13.01271631131573 ], [ 80.210697491879401, 13.012061507573399 ], [ 80.20801335675695, 13.011662733340152 ], [ 80.205302290838716, 13.011523827357269 ], [ 80.202590394785744, 13.011646126454259 ], [ 80.199903777145437, 13.012028452709325 ], [ 80.197268303237209, 13.012667124797913 ], [ 80.19470934637225, 13.013555993419864 ], [ 80.192251543791414, 13.014686500464942 ], [ 80.189918559660057, 13.016047761349043 ], [ 80.187732857392447, 13.017626669731261 ], [ 80.185715483489687, 13.019408023607369 ], [ 80.183885864966399, 13.021374671570307 ], [ 80.182261622312339, 13.023507677834329 ], [ 80.180858399788349, 13.025786504439619 ], [ 80.179689714691094, 13.028189208888445 ], [ 80.178766827040846, 13.030692655315599 ], [ 80.178098630952661, 13.033272737165005 ], [ 80.177691568743768, 13.035904609233285 ], [ 80.177549568613799, 13.038562926849956 ], [ 80.177674006508497, 13.041222089894534 ], [ 80.17806369254555, 13.04385648930305 ], [ 80.178714882146309, 13.046440753691527 ], [ 80.179621311778135, 13.048949993721527 ], [ 80.180774258975916, 13.051360041853551 ], [ 80.182162626076178, 13.053647685177244 ], [ 80.183773046867628, 13.055790889072922 ], [ 80.185590015140207, 13.0577690095463 ], [ 80.187596033900903, 13.059562992186583 ], [ 80.189771783824511, 13.061155555826181 ], [ 80.192096309318757, 13.062531359127346 ], [ 80.194547220411977, 13.063677148485223 ], [ 80.197100908515893, 13.064581885816716 ], [ 80.199732773980813, 13.06523685499883 ], [ 80.202417463243876, 13.065635745926006 ], [ 80.20512911327765, 13.065774715372466 ], [ 80.207841600973865, 13.065652424069837 ], [ 80.210528795048603, 13.065270049640379 ], [ 80.213164808030371, 13.064631275259968 ], [ 80.215724245891664, 13.063742254159784 ], [ 80.2181824529072, 13.062611550309718 ], [ 80.220515749369468, 13.061250055856986 ], [ 80.222701659861471, 13.059670886118415 ], [ 80.224719129880157, 13.057889253141996 ], [ 80.226548728717276, 13.055922319060484 ], [ 80.228172836639587, 13.053789030654984 ], [ 80.22957581456393, 13.051509936727856 ], [ 80.230744154593481, 13.049106990049848 ], [ 80.231666609968713, 13.046603335794906 ], [ 80.232334303186676, 13.044023088505798 ], [ 80.232740811255169, 13.041391099743654 ], [ 80.232882227269783, 13.038732718663432 ] ] ] } },
{ "type": "Feature", "properties": { "element": "node", "id": 248560797, "name": "Kasimedu", "nearest_node": 2271733882, "reachable_nodes": 14227, "utilization": "Underutilized", "density_score": 1183, "access_score": 3, "density_class": 1, "util_score": 1, "underserved_score": 5 }, "geometry": { "type": "Polygon", "coordinates": [ [ [ 80.323734773790221, 13.122849181893791 ], [ 80.323608774625598, 13.120190019426103 ], [ 80.323217456448248, 13.117555765469911 ], [ 80.322564596195519, 13.114971788556723 ], [ 80.321656489037807, 13.112462972245588 ], [ 80.320501887454839, 13.110053475541072 ], [ 80.319111916679944, 13.107766500316435 ], [ 80.317499967336687, 13.105624067978441 ], [ 80.315681566310289, 13.103646807520398 ], [ 80.313674227103647, 13.101853756999452 ], [ 80.311497281123479, 13.100262180344531 ], [ 80.309171691523247, 13.098887401253247 ], [ 80.306719851394746, 13.097742655771329 ], [ 80.30416536824913, 13.09683896496859 ], [ 80.301532836857419, 13.096185028931918 ], [ 80.298847602630858, 13.095787143091338 ], [ 80.296135517810569, 13.095649137680553 ], [ 80.293422692803944, 13.095772340911816 ], [ 80.290735245050726, 13.096155566217202 ], [ 80.288099047825142, 13.096795123678117 ], [ 80.285539481380539, 13.097684855532711 ], [ 80.283081188821257, 13.098816195420429 ], [ 80.280747839041453, 13.100178250795224 ], [ 80.278561899003378, 13.101757907717069 ], [ 80.276544417540293, 13.103539957016608 ], [ 80.274714822758952, 13.105507240622936 ], [ 80.273090734988571, 13.107640816650697 ], [ 80.271687797075757, 13.109920141662547 ], [ 80.270519523659786, 13.112323268357711 ], [ 80.269597170882918, 13.114827056788783 ], [ 80.268929627795472, 13.11740739707828 ], [ 80.268523330508685, 13.120039441495223 ], [ 80.268382199931636, 13.122697843661198 ], [ 80.268507603702048, 13.125357002585723 ], [ 80.268898342689809, 13.127991309183303 ], [ 80.26955066221548, 13.130575392899454 ], [ 80.270458287888516, 13.133084366070754 ], [ 80.271612485732362, 13.135494063664597 ], [ 80.273002146029171, 13.137781276087663 ], [ 80.27461389008684, 13.139923972817785 ], [ 80.27643219890922, 13.141901514701226 ], [ 80.278439562536761, 13.143694852865817 ], [ 80.28061664862426, 13.145286712328641 ], [ 80.282942488634021, 13.14666175852394 ], [ 80.285394679851166, 13.147806745141324 ], [ 80.28794960127243, 13.148710641844273 ], [ 80.290582641284075, 13.149364740633256 ], [ 80.293268434928876, 13.149762739823776 ], [ 80.295981108467586, 13.149900804826142 ], [ 80.298694528868637, 13.149777605138038 ], [ 80.301382555811642, 13.149394327191221 ], [ 80.304019293764412, 13.148754662927274 ], [ 80.306579341693762, 13.147864774212417 ], [ 80.309038037992124, 13.146733233435283 ], [ 80.311371698249928, 13.145370940861978 ], [ 80.313557843573392, 13.143791019547946 ], [ 80.315575417240268, 13.142008688822981 ], [ 80.317404987600497, 13.140041117573018 ], [ 80.319028935263347, 13.137907258737396 ], [ 80.320431622766478, 13.135627666621605 ], [ 80.321599545093719, 13.133224298791069 ], [ 80.322521459594967, 13.13072030445988 ], [ 80.32318849406262, 13.128139801418151 ], [ 80.323594231931338, 13.125507643651325 ], [ 80.323734773790221, 13.122849181893791 ] ] ] } },
{ "type": "Feature", "properties": { "element": "node", "id": 258978416, "name": "Amrit Hospital", "nearest_node": 247438113, "reachable_nodes": 21819, "utilization": "Balanced", "density_score": 1558, "access_score": 2, "density_class": 1, "util_score": 2, "underserved_score": 5 }, "geometry": { "type": "Polygon", "coordinates": [ [ [ 80.306964057755351, 13.092276510612406 ], [ 80.306838237795745, 13.08961734334868 ], [ 80.306447130879889, 13.0869830689354 ], [ 80.305794511892969, 13.084399056114364 ], [ 80.304886673668037, 13.081890188804699 ], [ 80.3037323660852, 13.079480626516856 ], [ 80.302342711541414, 13.077193571770302 ], [ 80.30073109761463, 13.075051046751598 ], [ 80.29891304796439, 13.073073681359343 ], [ 80.296906072718897, 13.071280514672301 ], [ 80.29472949979332, 13.069688811747062 ], [ 80.292404288765653, 13.06831389750373 ], [ 80.289952829102191, 13.067169009293371 ], [ 80.287398724672727, 13.066265169561227 ], [ 80.284766566625152, 13.065611079826466 ], [ 80.28208169679985, 13.065213036994475 ], [ 80.279369963952789, 13.065074872803438 ], [ 80.27665747512448, 13.065197916984955 ], [ 80.27397034453773, 13.065580984491088 ], [ 80.271334442429804, 13.066220386909675 ], [ 80.268775146225764, 13.067109967957739 ], [ 80.266317096437064, 13.068241162712347 ], [ 80.263983959624795, 13.069603080010552 ], [ 80.261798200700497, 13.071182607228131 ], [ 80.259780866748585, 13.072964536432121 ], [ 80.257951384445917, 13.074931710697154 ], [ 80.25632737302503, 13.077065189181971 ], [ 80.254924474579951, 13.079344429382161 ], [ 80.253756203349482, 13.081747484809981 ], [ 80.252833815432126, 13.084251216203482 ], [ 80.252166200192491, 13.086831514236481 ], [ 80.251759794412067, 13.089463531589763 ], [ 80.251618520020529, 13.092121922152984 ], [ 80.251743746017738, 13.094781085057196 ], [ 80.25213427496503, 13.097415411190326 ], [ 80.25278635418816, 13.09999952982302 ], [ 80.253693711596952, 13.102508552969862 ], [ 80.254847615788734, 13.104918315131682 ], [ 80.256236959868659, 13.107205606107966 ], [ 80.257848368189741, 13.109348394633987 ], [ 80.259666324993759, 13.111326040684702 ], [ 80.261673323720544, 13.113119494395809 ], [ 80.263850035552579, 13.114711479680544 ], [ 80.266175495573805, 13.116086660767879 ], [ 80.268627304749188, 13.117231790052081 ], [ 80.271181845777434, 13.118135835823566 ], [ 80.273814510732407, 13.118790088645195 ], [ 80.27649993829354, 13.11918824534423 ], [ 80.279212258271386, 13.119326469806641 ], [ 80.281925341062319, 13.11920342998463 ], [ 80.284613049617832, 13.118820310758599 ], [ 80.287249491489689, 13.118180802528284 ], [ 80.289809268509941, 13.117291065642952 ], [ 80.292267721689669, 13.116159671014277 ], [ 80.294601168965656, 13.114797517486256 ], [ 80.296787133495485, 13.113217726761308 ], [ 80.298804560293405, 13.111435516898826 ], [ 80.300634019114526, 13.109468055609739 ], [ 80.302257891628756, 13.107334294765469 ], [ 80.303660541080177, 13.105054787721349 ], [ 80.304828462798653, 13.102651491219779 ], [ 80.305750414117227, 13.100147553787023 ], [ 80.306417522449578, 13.097567092667241 ], [ 80.306823370494357, 13.094934961446976 ], [ 80.306964057755351, 13.092276510612406 ] ] ] } },
{ "type": "Feature", "properties": { "element": "node", "id": 258978417, "name": "Vikram Hospital", "nearest_node": 254141777, "reachable_nodes": 21056, "utilization": "Balanced", "density_score": 2004, "access_score": 2, "density_class": 3, "util_score": 2, "underserved_score": 7 }, "geometry": { "type": "Polygon", "coordinates": [ [ [ 80.307291363049785, 13.098576511338168 ], [ 80.307165539886441, 13.095917345185555 ], [ 80.306774423010651, 13.093283071872136 ], [ 80.306121787407818, 13.090699060128319 ], [ 80.305213926074828, 13.088190193861731 ], [ 80.304059589117699, 13.085780632571307 ], [ 80.302669899218984, 13.083493578765205 ], [ 80.301058244299057, 13.081351054619017 ], [ 80.299240148413389, 13.079373690020926 ], [ 80.297233122135694, 13.077580524039986 ], [ 80.295056493871982, 13.075988821723969 ], [ 80.292731223731721, 13.074613907985208 ], [ 80.290279701748261, 13.073469020168199 ], [ 80.287725532388535, 13.072565180712937 ], [ 80.285093307422216, 13.071911091134778 ], [ 80.282408369330099, 13.07151304833681 ], [ 80.279696567521256, 13.071374884056498 ], [ 80.276984009695909, 13.071497928026288 ], [ 80.274296810736871, 13.071880995200692 ], [ 80.271660841535649, 13.072520397171521 ], [ 80.26910148015962, 13.073409977661262 ], [ 80.266643367744493, 13.074541171753806 ], [ 80.264310171451811, 13.075903088294297 ], [ 80.262124356763962, 13.077482614667709 ], [ 80.260106971301269, 13.079264542951234 ], [ 80.258277442236462, 13.081231716230418 ], [ 80.256653389252961, 13.083365193675526 ], [ 80.255250454846575, 13.085644432794057 ], [ 80.254082153604671, 13.0880474871104 ], [ 80.253159741917813, 13.09055121737477 ], [ 80.252492109383027, 13.093131514272997 ], [ 80.252085692952434, 13.095763530497591 ], [ 80.251944414662574, 13.098421919949484 ], [ 80.252069643555359, 13.10108108177042 ], [ 80.252460182168662, 13.103715406858372 ], [ 80.25311227773939, 13.106299524493258 ], [ 80.254019658023779, 13.10880854669813 ], [ 80.25517359140224, 13.111218307981432 ], [ 80.256562970701495, 13.113505598149404 ], [ 80.258174419937376, 13.115648385943192 ], [ 80.259992422958746, 13.117626031342795 ], [ 80.261999472760579, 13.119419484488121 ], [ 80.264176240032924, 13.121011469295819 ], [ 80.266501759324242, 13.122386649997567 ], [ 80.268953631026491, 13.123531778989625 ], [ 80.27150823723322, 13.124435824563767 ], [ 80.27414096938702, 13.125090077283602 ], [ 80.276826465516081, 13.125488233976588 ], [ 80.279538854766329, 13.125626458528345 ], [ 80.282252006862478, 13.12550341889022 ], [ 80.284939784084216, 13.125120299941241 ], [ 80.28757629331767, 13.124480792079268 ], [ 80.290136135742372, 13.123591055651154 ], [ 80.292594651736138, 13.122459661565637 ], [ 80.294928158628153, 13.121097508663199 ], [ 80.297114178999863, 13.119517718642122 ], [ 80.29913165732664, 13.117735509557058 ], [ 80.300961162867068, 13.1157680491135 ], [ 80.302585076841737, 13.113634289176751 ], [ 80.303987762096938, 13.111354783095308 ], [ 80.305155713619982, 13.108951487604008 ], [ 80.306077688459851, 13.106447551220851 ], [ 80.306744813807299, 13.103867091181032 ], [ 80.307150672201118, 13.101234961061474 ], [ 80.307291363049785, 13.098576511338168 ] ] ] } },
{ "type": "Feature", "properties": { "element": "node", "id": 262452334, "name": "City Tower Hospitals", "nearest_node": 403772084, "reachable_nodes": 29448, "utilization": "Overloaded", "density_score": 1952, "access_score": 1, "density_class": 3, "util_score": 3, "underserved_score": 7 }, "geometry": { "type": "Polygon", "coordinates": [ [ [ 80.243757789683244, 13.084462540499652 ], [ 80.243632648501958, 13.081803376547397 ], [ 80.243242225813802, 13.079169040632239 ], [ 80.242590289921523, 13.076584902128323 ], [ 80.241683127094944, 13.074075846202676 ], [ 80.240529480732974, 13.071666034215724 ], [ 80.239140466894796, 13.069378671119896 ], [ 80.237529467023876, 13.067235782093183 ], [ 80.235711998906382, 13.065258000554437 ], [ 80.233705567113148, 13.063464369597019 ], [ 80.231529494369852, 13.061872158747553 ], [ 80.229204735481247, 13.060496697808608 ], [ 80.226753675600918, 13.059351229379446 ], [ 80.224199914786197, 13.058446781469389 ], [ 80.221568040908352, 13.057792061424843 ], [ 80.218883393097059, 13.057393372186668 ], [ 80.216171817988695, 13.057254551679927 ], [ 80.21345942111499, 13.057376935916409 ], [ 80.210772315814864, 13.057759346162763 ], [ 80.208136372075103, 13.058398100296552 ], [ 80.205576967706392, 13.059287048240645 ], [ 80.203118744238651, 13.060417631135733 ], [ 80.200785369875518, 13.061778963683183 ], [ 80.198599311780384, 13.063357938868375 ], [ 80.196581619878614, 13.065139354060042 ], [ 80.194751724251233, 13.067106057276131 ], [ 80.193127248067, 13.069239112212964 ], [ 80.191723837852081, 13.071517980454239 ], [ 80.190555012732332, 13.073920719111129 ], [ 80.189632034102729, 13.076424191996111 ], [ 80.188963796984183, 13.079004292302393 ], [ 80.188556744121129, 13.081636174649752 ], [ 80.188414803656457, 13.084294494266389 ], [ 80.188539350994333, 13.0869536510071 ], [ 80.188929195230202, 13.08958803586024 ], [ 80.189580590290916, 13.092172277571011 ], [ 80.190487270690468, 13.094681487006209 ], [ 80.191640511569361, 13.097091496906129 ], [ 80.193029212450924, 13.099379094712649 ], [ 80.194640003918394, 13.101522246228003 ], [ 80.196457376194488, 13.103500307946037 ], [ 80.198463828391496, 13.105294226006261 ], [ 80.200640036999658, 13.106886719848855 ], [ 80.202965041992982, 13.108262448795982 ], [ 80.205416448760289, 13.109408159948957 ], [ 80.207970643913526, 13.110312815970726 ], [ 80.210603022890055, 13.110967701517261 ], [ 80.213288227149533, 13.111366507287549 ], [ 80.216000388671617, 13.111505390878255 ], [ 80.218713379388944, 13.111383013853308 ], [ 80.22140106314157, 13.111000554668927 ], [ 80.224037547713039, 13.11036169732821 ], [ 80.226597434508832, 13.109472595874479 ], [ 80.229056063459609, 13.108341815066334 ], [ 80.231389750779272, 13.106980247808103 ], [ 80.233576017277656, 13.105401010134212 ], [ 80.235593805020599, 13.103619314763232 ], [ 80.237423680243992, 13.101652324444341 ], [ 80.23904802056316, 13.099518986514424 ], [ 80.240451184673205, 13.097239850265046 ], [ 80.241619662905919, 13.094836868884421 ], [ 80.242542207197047, 13.092333187887823 ], [ 80.243209939217024, 13.089752922079631 ], [ 80.243616435632063, 13.087120923200226 ], [ 80.243757789683244, 13.084462540499652 ] ] ] } },
{ "type": "Feature", "properties": { "element": "node", "id": 289486820, "name": "Apollo Hospitals, Tondiarpet", "nearest_node": 7791666274, "reachable_nodes": 14762, "utilization": "Underutilized", "density_score": 1445, "access_score": 3, "density_class": 1, "util_score": 1, "underserved_score": 5 }, "geometry": { "type": "Polygon", "coordinates": [ [ [ 80.318239331169281, 13.129011507085526 ], [ 80.318113391467747, 13.126352345922353 ], [ 80.317722125834834, 13.123718087247099 ], [ 80.317069310707168, 13.121134099639555 ], [ 80.31616124082619, 13.118625266764001 ], [ 80.31500666831846, 13.116215747786026 ], [ 80.31361671814301, 13.113928744794134 ], [ 80.312004780730547, 13.111786279462452 ], [ 80.310186382856301, 13.109808981101182 ], [ 80.308179037997078, 13.108015888130877 ], [ 80.306002077617507, 13.106424264886968 ], [ 80.303676465012146, 13.105049435512807 ], [ 80.301224593495718, 13.103904636534955 ], [ 80.298670070881869, 13.103000889534623 ], [ 80.296037492320849, 13.102346895135906 ], [ 80.293352203676179, 13.101948949326783 ], [ 80.290640057710021, 13.101810882914515 ], [ 80.2879271654147, 13.101934024695069 ], [ 80.285239644873315, 13.102317188688973 ], [ 80.282603370055767, 13.10295668556523 ], [ 80.280043721957, 13.103846358143246 ], [ 80.277585344461997, 13.104977640631809 ], [ 80.275251907277053, 13.10633964103693 ], [ 80.273065878200811, 13.107919245948008 ], [ 80.271048306918985, 13.109701246697442 ], [ 80.26921862239908, 13.111668485683504 ], [ 80.267594445831108, 13.113802021452862 ], [ 80.266191420914396, 13.11608131095881 ], [ 80.265023063124744, 13.118484407245949 ], [ 80.264100629416731, 13.120988170663503 ], [ 80.26343300962094, 13.123568491578911 ], [ 80.263026640589416, 13.126200522451844 ], [ 80.262885443925143, 13.128858917038331 ], [ 80.263010787906282, 13.131518074424633 ], [ 80.26340147398318, 13.134152385543441 ], [ 80.264053747991255, 13.136736479799575 ], [ 80.264961335983955, 13.139245469430332 ], [ 80.266115504353451, 13.141655189246102 ], [ 80.267505143671457, 13.143942429440305 ], [ 80.269116875453406, 13.146085159223267 ], [ 80.270935180826342, 13.148062739122084 ], [ 80.272942549868191, 13.149856119896858 ], [ 80.275119650185076, 13.151448026152003 ], [ 80.277445513104695, 13.152823122868199 ], [ 80.279897735692927, 13.153968163245075 ], [ 80.282452696644597, 13.154872116424594 ], [ 80.285085783964405, 13.155526273859298 ], [ 80.287771632237522, 13.15592433329582 ], [ 80.290484367195546, 13.156062459560257 ], [ 80.293197855211517, 13.155939321556566 ], [ 80.295885955309103, 13.155556105119071 ], [ 80.298522771246397, 13.154916501594144 ], [ 80.301082901233471, 13.154026672260835 ], [ 80.303541682866708, 13.152895188934382 ], [ 80.305875430908941, 13.151532951326869 ], [ 80.308061665615526, 13.149953081964444 ], [ 80.310079329398448, 13.148170799677445 ], [ 80.311908989735485, 13.146203272886924 ], [ 80.313533026365945, 13.144069454106372 ], [ 80.314935800968257, 13.141789897258462 ], [ 80.316103807686062, 13.139386559572387 ], [ 80.317025803056282, 13.136882589975741 ], [ 80.317692914093371, 13.134302106024435 ], [ 80.318098723496647, 13.131669961524159 ], [ 80.318239331169281, 13.129011507085526 ] ] ] } },
{ "type": "Feature", "properties": { "element": "node", "id": 295544111, "name": "K.H.M.Hospital", "nearest_node": 403772085, "reachable_nodes": 31080, "utilization": "Overloaded", "density_score": 1904, "access_score": 1, "density_class": 3, "util_score": 3, "underserved_score": 7 }, "geometry": { "type": "Polygon", "coordinates": [ [ [ 80.240743876938978, 13.084525263913669 ], [ 80.240618768153766, 13.081866100278294 ], [ 80.240228377661964, 13.079231761564246 ], [ 80.239576473456864, 13.076647617174494 ], [ 80.238669341504135, 13.074138552334473 ], [ 80.2375157249067, 13.071728728491964 ], [ 80.236126739438717, 13.069441350714811 ], [ 80.23451576627231, 13.067298444323317 ], [ 80.232698322938461, 13.065320642904124 ], [ 80.230691913771423, 13.063526989742245 ], [ 80.228515861281068, 13.061934754577948 ], [ 80.226191120079108, 13.060559267447394 ], [ 80.223740075150587, 13.059413771201172 ], [ 80.221186326410503, 13.058509294115241 ], [ 80.218554461615142, 13.057854543815488 ], [ 80.215869819807665, 13.057455823532408 ], [ 80.213158247567222, 13.057316971488184 ], [ 80.210445850398116, 13.057439323996379 ], [ 80.207758741641896, 13.057821702627256 ], [ 80.20512279131799, 13.058460425560988 ], [ 80.202563377299484, 13.059349343019191 ], [ 80.200105141207899, 13.060479896434648 ], [ 80.197771751366801, 13.061841200791388 ], [ 80.195585675086804, 13.063420149345365 ], [ 80.193567962466361, 13.065201539721219 ], [ 80.191738043783971, 13.067168220175702 ], [ 80.190113542428321, 13.069301254624536 ], [ 80.18871010516601, 13.071580104849293 ], [ 80.187541251381489, 13.073982828135581 ], [ 80.186618242744231, 13.076486288445146 ], [ 80.185949974562789, 13.079066379093817 ], [ 80.185542889879798, 13.081698254796104 ], [ 80.185400917143994, 13.084356570846072 ], [ 80.185525432070165, 13.087015727134816 ], [ 80.185915244066081, 13.089650114656985 ], [ 80.186566607369713, 13.092234362133954 ], [ 80.187473256801923, 13.094743580378696 ], [ 80.188626467802777, 13.097153602048186 ], [ 80.190015140184968, 13.099441214472201 ], [ 80.191625904808106, 13.101584383313101 ], [ 80.19344325215539, 13.103562464898456 ], [ 80.195449681581323, 13.105356405176634 ], [ 80.197625869797477, 13.106948923373643 ], [ 80.199950856976315, 13.108324678576531 ], [ 80.202402248680031, 13.109470417632838 ], [ 80.204956431667242, 13.11037510293554 ], [ 80.207588801493813, 13.1110300188571 ], [ 80.210273999708491, 13.111428855802259 ], [ 80.212986158349707, 13.111567771065573 ], [ 80.215699149378082, 13.111445425904005 ], [ 80.218386836630401, 13.111062998464954 ], [ 80.221023327855917, 13.11042417244394 ], [ 80.223583224395014, 13.109535101580926 ], [ 80.22604186608315, 13.108404350338393 ], [ 80.228375569009913, 13.107042811334708 ], [ 80.230561853833009, 13.105463600331266 ], [ 80.232579662439775, 13.10368192978922 ], [ 80.234409560863043, 13.101714962218448 ], [ 80.236033926492681, 13.099581644736947 ], [ 80.237437117778001, 13.097302526439929 ], [ 80.23860562478724, 13.094899560343642 ], [ 80.239528199177414, 13.092395891817398 ], [ 80.240195962327761, 13.089815635547001 ], [ 80.24060249060372, 13.0871836431827 ], [ 80.240743876938978, 13.084525263913669 ] ] ] } },
{ "type": "Feature", "properties": { "element": "node", "id": 295552091, "name": "Sundaram Medical Foundation", "nearest_node": 403775512, "reachable_nodes": 29837, "utilization": "Overloaded", "density_score": 1807, "access_score": 1, "density_class": 3, "util_score": 3, "underserved_score": 7 }, "geometry": { "type": "Polygon", "coordinates": [ [ [ 80.234653183450931, 13.082253502455199 ], [ 80.234528139866867, 13.07959433906089 ], [ 80.234137816751968, 13.076959994437466 ], [ 80.233485981450286, 13.074375838048805 ], [ 80.232578919264441, 13.071866755239745 ], [ 80.231425372626845, 13.069456907634653 ], [ 80.23003645664015, 13.067169500533332 ], [ 80.228425551810233, 13.065026559541019 ], [ 80.226608175013538, 13.063048718579475 ], [ 80.224601829947545, 13.061255021315679 ], [ 80.222425838509196, 13.059662737915017 ], [ 80.220101154726692, 13.058287198877776 ], [ 80.21765016303668, 13.057141647553259 ], [ 80.215096462845707, 13.056237112745967 ], [ 80.212464641446459, 13.0555823026351 ], [ 80.209780037467652, 13.055183521024064 ], [ 80.207068497126926, 13.055044606722104 ], [ 80.204356125623434, 13.055166896638518 ], [ 80.201669036052792, 13.055549212942363 ], [ 80.199033098250055, 13.056187874410046 ], [ 80.196473689967149, 13.057076731851298 ], [ 80.194015452769023, 13.058207227273359 ], [ 80.191682054987652, 13.059568476215663 ], [ 80.189495964007207, 13.061147372465289 ], [ 80.187478230064158, 13.062928714148716 ], [ 80.185648283638329, 13.064895349990472 ], [ 80.184023748381222, 13.067028344335531 ], [ 80.182620271381396, 13.069307159352098 ], [ 80.181451372401526, 13.071709852666029 ], [ 80.180528313541984, 13.074213288529622 ], [ 80.179859990591041, 13.076793360496691 ], [ 80.179452847115357, 13.079425223464767 ], [ 80.179310812127014, 13.082083532854117 ], [ 80.179435261938281, 13.084742688623818 ], [ 80.17982500658276, 13.087377081777531 ], [ 80.180476300946722, 13.089961340986386 ], [ 80.181382880515429, 13.092470576954229 ], [ 80.182536021403195, 13.09488062217088 ], [ 80.183924624100101, 13.097168263742459 ], [ 80.185535320139834, 13.099311467053157 ], [ 80.187352600669655, 13.101289588100476 ], [ 80.189358965691554, 13.103083572453896 ], [ 80.191535092541756, 13.104676138915343 ], [ 80.193860021988186, 13.106051946106653 ], [ 80.196311360153572, 13.107197740373508 ], [ 80.198865494316465, 13.108102483575276 ], [ 80.201497820506887, 13.108757459524256 ], [ 80.204182980697283, 13.109156358043977 ], [ 80.206895107295082, 13.109295335832456 ], [ 80.209608072571612, 13.109173053540637 ], [ 80.212295740612859, 13.108790688706458 ], [ 80.214932219353486, 13.108151924418513 ], [ 80.217492110253573, 13.107262913818388 ], [ 80.219950753201516, 13.106132220784673 ], [ 80.222284464272548, 13.104770737372032 ], [ 80.224470764042991, 13.103191578803957 ], [ 80.226488594252672, 13.101409957034727 ], [ 80.228318520722368, 13.099443034103356 ], [ 80.229942920567439, 13.097309756697557 ], [ 80.231346151903182, 13.095030673526992 ], [ 80.23251470440762, 13.092627737270806 ], [ 80.233437329295285, 13.090124093012838 ], [ 80.234105147455168, 13.087543855207738 ], [ 80.234511734719447, 13.084911875331034 ], [ 80.234653183450931, 13.082253502455199 ] ] ] } },
{ "type": "Feature", "properties": { "element": "node", "id": 295552092, "name": "Sri Devi Speciality Hospial", "nearest_node": 295544658, "reachable_nodes": 30388, "utilization": "Overloaded", "density_score": 2011, "access_score": 1, "density_class": 3, "util_score": 3, "underserved_score": 7 }, "geometry": { "type": "Polygon", "coordinates": [ [ [ 80.227141172982527, 13.088882649410134 ], [ 80.227016210901112, 13.086223488012454 ], [ 80.226625961841549, 13.083589137221434 ], [ 80.225974192440717, 13.081004966564411 ], [ 80.225067187373128, 13.078495861526948 ], [ 80.2239136885281, 13.07608598394992 ], [ 80.222524810555001, 13.073798539423235 ], [ 80.220913933600499, 13.071655553913006 ], [ 80.21909657427895, 13.06967766176912 ], [ 80.217090236125301, 13.06788390714985 ], [ 80.21491424097465, 13.066291560770361 ], [ 80.212589542894733, 13.064915953734031 ], [ 80.210138526462302, 13.063770330040866 ], [ 80.207584791323342, 13.062865719187579 ], [ 80.204952925106866, 13.062210830080634 ], [ 80.202268266871599, 13.061811967278901 ], [ 80.199556663354784, 13.061672970368257 ], [ 80.196844220359921, 13.0617951770485 ], [ 80.194157051665968, 13.062177410285642 ], [ 80.191521027863999, 13.062815989652005 ], [ 80.188961527527596, 13.063704766744689 ], [ 80.186503193101288, 13.0648351843423 ], [ 80.184169693846385, 13.066196358732292 ], [ 80.181983498117461, 13.067775184419283 ], [ 80.179965657153375, 13.06955646020991 ], [ 80.178135602458866, 13.071523035464896 ], [ 80.17651095872337, 13.073655975115285 ], [ 80.175107374076404, 13.075934741859452 ], [ 80.173938369314897, 13.078337393792308 ], [ 80.173015207556787, 13.08084079556939 ], [ 80.172346785581581, 13.083420841077913 ], [ 80.171939547911165, 13.086052685475517 ], [ 80.171797424467684, 13.088710984366591 ], [ 80.171921792419369, 13.091370137816394 ], [ 80.172311462593356, 13.09400453685558 ], [ 80.172962690599007, 13.096588810102665 ], [ 80.173869212567297, 13.099098068129612 ], [ 80.175022305174181, 13.101508143216249 ], [ 80.176410869381769, 13.103795822182491 ], [ 80.17802153710123, 13.105939070052845 ], [ 80.179838799759025, 13.10791724239508 ], [ 80.181845157534937, 13.109711284283062 ], [ 80.184021287839798, 13.111303913962043 ], [ 80.186346231412003, 13.112679789441605 ], [ 80.188797594240697, 13.113825656405616 ], [ 80.191351763368047, 13.114730476008594 ], [ 80.193984134487096, 13.115385531321937 ], [ 80.19666934913603, 13.115784511399552 ], [ 80.199381539194917, 13.115923572148709 ], [ 80.202094576319752, 13.115801373416332 ], [ 80.204782323899494, 13.115419091930983 ], [ 80.207418889096786, 13.114780409974488 ], [ 80.209978872532531, 13.11389147989223 ], [ 80.212437613196983, 13.112760864784921 ], [ 80.214771426217268, 13.111399455955286 ], [ 80.216957831181048, 13.109820367908103 ], [ 80.218975768808676, 13.108038811919101 ], [ 80.22080580388068, 13.106071949395414 ], [ 80.222430312461768, 13.103938726445573 ], [ 80.223833651616289, 13.10165969125825 ], [ 80.225002309981491, 13.099256796054638 ], [ 80.225925037751239, 13.096753185527955 ], [ 80.226592954823985, 13.094172973813119 ], [ 80.226999636080919, 13.091541012139695 ], [ 80.227141172982527, 13.088882649410134 ] ] ] } },
{ "type": "Feature", "properties": { "element": "node", "id": 303590777, "name": "Corporation Hospital", "nearest_node": 249797441, "reachable_nodes": 17064, "utilization": "Underutilized", "density_score": 1701, "access_score": 3, "density_class": 2, "util_score": 1, "underserved_score": 6 }, "geometry": { "type": "Polygon", "coordinates": [ [ [ 80.284912906031352, 13.033740231956878 ], [ 80.284787319034209, 13.031081055567315 ], [ 80.284396506780894, 13.028446752601466 ], [ 80.283744241283287, 13.025862692095242 ], [ 80.282836811940385, 13.023353758448563 ], [ 80.281682964671774, 13.020944111833852 ], [ 80.280293817426411, 13.018656955606495 ], [ 80.278682752890148, 13.016514312953943 ], [ 80.2768652894338, 13.014536814930114 ], [ 80.274858931550909, 13.012743501911512 ], [ 80.272683001230021, 13.011151640381639 ], [ 80.270358451886864, 13.009776556802246 ], [ 80.267907666648128, 13.008631490165378 ], [ 80.265354242926492, 13.007727464640414 ], [ 80.262722765355917, 13.007073183536967 ], [ 80.260038569267195, 13.006674945599928 ], [ 80.257327496972053, 13.006536584438424 ], [ 80.254615649192488, 13.006659431668735 ], [ 80.251929134017672, 13.007042304123683 ], [ 80.249293815793706, 13.007681515250416 ], [ 80.246735066352272, 13.008570910586672 ], [ 80.244277520962001, 13.009701926974905 ], [ 80.241944841341336, 13.011063674946149 ], [ 80.239759488005319, 13.012643043483319 ], [ 80.237742504130225, 13.014424826159194 ], [ 80.235913313010798, 13.016391867439115 ], [ 80.234289531056433, 13.018525227744876 ], [ 80.232886798124937, 13.020804365695989 ], [ 80.231718626828382, 13.023207335779233 ], [ 80.230796272264925, 13.025710999548767 ], [ 80.230128623436244, 13.028291248328477 ], [ 80.22972211740354, 13.030923235276974 ], [ 80.229580677017722, 13.033581614584744 ], [ 80.229705672834299, 13.036240785503464 ], [ 80.230095909591284, 13.038875138859883 ], [ 80.230747637392824, 13.041459303681604 ], [ 80.231654587503257, 13.043968391559922 ], [ 80.232808032419598, 13.046378236395388 ], [ 80.234196869655108, 13.048665627215103 ], [ 80.235807728437422, 13.050808531816376 ], [ 80.237625098302757, 13.052786309078751 ], [ 80.239631478354212, 13.054579907894734 ], [ 80.241807545751357, 13.056172050797796 ], [ 80.244132341810712, 13.057547400513172 ], [ 80.246583473924389, 13.058692707821354 ], [ 80.249137331349544, 13.059596939304091 ], [ 80.251769312785214, 13.060251383736926 ], [ 80.254454063537352, 13.060649736098304 ], [ 80.257165719978815, 13.060788158381838 ], [ 80.259878158939173, 13.060665316622353 ], [ 80.262565249610503, 13.060282393776795 ], [ 80.265201105530693, 13.059643078334499 ], [ 80.267760334204667, 13.058753528766518 ], [ 80.270218281947152, 13.057622314157431 ], [ 80.272551271577569, 13.056260331593744 ], [ 80.274736830667351, 13.054680701107792 ], [ 80.276753908133244, 13.052898639193348 ], [ 80.278583077083866, 13.050931312116052 ], [ 80.280206721961761, 13.048797670437148 ], [ 80.281609208176945, 13.046518266350128 ], [ 80.282777032598474, 13.044115055595661 ], [ 80.283698953458455, 13.041611185868444 ], [ 80.284366098422154, 13.039030773759427 ], [ 80.284772049791627, 13.03639867238665 ], [ 80.284912906031352, 13.033740231956878 ] ] ] } },
{ "type": "Feature", "properties": { "element": "node", "id": 308811614, "name": "Hindu Mission Health Services, Kanchipuram", "nearest_node": 300378746, "reachable_nodes": 7347, "utilization": "Underutilized", "density_score": 1472, "access_score": 3, "density_class": 1, "util_score": 1, "underserved_score": 5 }, "geometry": { "type": "Polygon", "coordinates": [ [ [ 80.212306752469075, 12.97885342993394 ], [ 80.212181935244004, 12.976194251135231 ], [ 80.211791948174209, 12.973559874524105 ], [ 80.211140555301355, 12.970975669895964 ], [ 80.210234037609325, 12.968466523088724 ], [ 80.209081132239305, 12.966056596375537 ], [ 80.20769294808288, 12.963769095853197 ], [ 80.206082858576323, 12.961626048063104 ], [ 80.204266372736797, 12.959648087991965 ], [ 80.202260985688824, 12.957854260488801 ], [ 80.200086010124863, 12.956261837005426 ], [ 80.197762390325124, 12.95488614941932 ], [ 80.195312500527052, 12.953740442533391 ], [ 80.19275992958336, 12.952835746667274 ], [ 80.190129253977545, 12.952180771561611 ], [ 80.187445801375432, 12.951781822612087 ], [ 80.18473540698082, 12.951642740235634 ], [ 80.182024165031336, 12.951764862949283 ], [ 80.179338177816078, 12.952147014514841 ], [ 80.176703304619849, 12.952785515271785 ], [ 80.174144912999779, 12.953674217549084 ], [ 80.171687634777285, 12.954804564815875 ], [ 80.169355129084209, 12.956165674003291 ], [ 80.16716985473515, 12.957744440207854 ], [ 80.165152854109365, 12.959525662772041 ], [ 80.163323550617022, 12.961492191532601 ], [ 80.161699561696139, 12.963625091833611 ], [ 80.160296529138392, 12.965903826720821 ], [ 80.159127968378741, 12.968306454568772 ], [ 80.158205138202376, 12.970809840243209 ], [ 80.157536932129133, 12.973389877770931 ], [ 80.157129792528352, 12.976021722377824 ], [ 80.156987648300188, 12.978680029664838 ], [ 80.157111876734348, 12.981339199622195 ], [ 80.157501289924681, 12.983973623134418 ], [ 80.158152145883392, 12.986557928603725 ], [ 80.159058184259848, 12.989067226316934 ], [ 80.160210686332732, 12.991477348201659 ], [ 80.161598558708945, 12.993765080660799 ], [ 80.163208439933712, 12.995908388239737 ], [ 80.165024828994092, 12.997886625968233 ], [ 80.167030234484727, 12.99968073832706 ], [ 80.169205343004407, 13.00127344291756 ], [ 80.171529205163523, 13.00264939705945 ], [ 80.173979437410949, 13.003795345706237 ], [ 80.176532437733769, 13.004700249247547 ], [ 80.179163613147736, 13.00535538996189 ], [ 80.181847616779663, 13.005754456089329 ], [ 80.184558592249957, 13.005893602709842 ], [ 80.187270422990579, 13.005771488837533 ], [ 80.189956984085512, 13.005389290370834 ], [ 80.192592394196041, 13.00475068877266 ], [ 80.195151265131742, 13.003861835589303 ], [ 80.197608946651357, 13.002731293150873 ], [ 80.199941764124546, 13.001369952026584 ], [ 80.202127246755168, 12.999790926033112 ], [ 80.2041443441599, 12.998009425811537 ], [ 80.205973629209353, 12.996042612195321 ], [ 80.207597485174333, 12.993909430787239 ], [ 80.209000275372532, 12.99163042934431 ], [ 80.210168493682787, 12.989227559735587 ], [ 80.211090894480037, 12.986723966386053 ], [ 80.211758600745227, 12.984143763249731 ], [ 80.212165189316394, 12.981511801464988 ], [ 80.212306752469075, 12.97885342993394 ] ] ] } },
{ "type": "Feature", "properties": { "element": "node", "id": 310504820, "name": "Goverment dental hospital & collage", "nearest_node": 303283783, "reachable_nodes": 21687, "utilization": "Balanced", "density_score": 1101, "access_score": 2, "density_class": 1, "util_score": 2, "underserved_score": 5 }, "geometry": { "type": "Polygon", "coordinates": [ [ [ 80.308935838634525, 13.083036046726832 ], [ 80.308809997024838, 13.080376877716761 ], [ 80.308418878482769, 13.077742604104348 ], [ 80.307766257998836, 13.075158594623302 ], [ 80.306858428413989, 13.072649733160869 ], [ 80.305704139519193, 13.070240179172075 ], [ 80.30431451352618, 13.067953135097964 ], [ 80.302702937733542, 13.065810623024342 ], [ 80.300884935430318, 13.063833272727628 ], [ 80.298878016286679, 13.062040123144056 ], [ 80.296701507676659, 13.060448439168612 ], [ 80.294376368559384, 13.059073545542137 ], [ 80.291924987710502, 13.057928679420403 ], [ 80.289370968243745, 13.057024863039054 ], [ 80.286738900492907, 13.056370797695275 ], [ 80.284054125433912, 13.055972780062106 ], [ 80.281342490915847, 13.055834641637171 ], [ 80.27863010303868, 13.055957711905501 ], [ 80.275943075059644, 13.056340805568931 ], [ 80.273307276234505, 13.056980233963749 ], [ 80.270748083000143, 13.057869840556554 ], [ 80.268290134882292, 13.059001060177508 ], [ 80.265957097468174, 13.060363001422685 ], [ 80.263771434716418, 13.061942551435225 ], [ 80.26175419278853, 13.063724502060136 ], [ 80.259924797477254, 13.065691696162919 ], [ 80.258300867178093, 13.067825192708156 ], [ 80.256898043203321, 13.070104449014257 ], [ 80.255729839072757, 13.072507518435129 ], [ 80.254807510235665, 13.075011261570928 ], [ 80.254139945483558, 13.07759156897948 ], [ 80.253733581106545, 13.080223593248723 ], [ 80.253592338629772, 13.082881988199611 ], [ 80.25371758673937, 13.085541152919339 ], [ 80.254108127777059, 13.088175478277362 ], [ 80.25476020894547, 13.090759593551416 ], [ 80.255667558129232, 13.0932686107887 ], [ 80.256821443998916, 13.095678364547851 ], [ 80.258210759830831, 13.097965644710769 ], [ 80.259822130245709, 13.10010842011889 ], [ 80.261640039847052, 13.102086050875998 ], [ 80.263646982527234, 13.103879487267927 ], [ 80.265823630007688, 13.105471453377818 ], [ 80.268149017992585, 13.106846613622535 ], [ 80.270600748142485, 13.107991720600333 ], [ 80.273155203920211, 13.108895742819589 ], [ 80.275787778224711, 13.109549971072884 ], [ 80.278473110613589, 13.109948102426642 ], [ 80.281185331819785, 13.110086301013029 ], [ 80.283898313197255, 13.109963235035035 ], [ 80.286585918680885, 13.109580089625954 ], [ 80.289222256821688, 13.10894055543805 ], [ 80.291781930457205, 13.108050793070301 ], [ 80.294240281600139, 13.106919373678901 ], [ 80.296573629175242, 13.105557196344833 ], [ 80.298759497304573, 13.103977382997737 ], [ 80.300776831934101, 13.102195151912404 ], [ 80.302606203708635, 13.100227671001267 ], [ 80.304229995137149, 13.098093892321639 ], [ 80.305632570244143, 13.09581436939736 ], [ 80.306800425073618, 13.093411059120514 ], [ 80.307722317599783, 13.090907110146899 ], [ 80.308389375798342, 13.088326639828923 ], [ 80.308795182845671, 13.085694501839139 ], [ 80.308935838634525, 13.083036046726832 ] ] ] } },
{ "type": "Feature", "properties": { "element": "node", "id": 310732936, "name": "Kilpauk Medical College", "nearest_node": 249075309, "reachable_nodes": 29075, "utilization": "Overloaded", "density_score": 1561, "access_score": 1, "density_class": 2, "util_score": 3, "underserved_score": 6 }, "geometry": { "type": "Polygon", "coordinates": [ [ [ 80.271008019629974, 13.078677985291701 ], [ 80.270882585146154, 13.076018817884918 ], [ 80.270491876598257, 13.073384506985759 ], [ 80.269839665032734, 13.070800421711029 ], [ 80.268932239361916, 13.068291446700348 ], [ 80.267778345500957, 13.065881742522315 ], [ 80.266389101875447, 13.063594513081222 ], [ 80.264777892123206, 13.061451782261079 ], [ 80.262960236032356, 13.059474181953647 ], [ 80.26095363996474, 13.057680753506913 ], [ 80.258777428209555, 13.056088764500672 ], [ 80.256452556893279, 13.054713542607791 ], [ 80.254001412237272, 13.05356832813526 ], [ 80.251447595103116, 13.052664146659204 ], [ 80.248815693895423, 13.052009702974887 ], [ 80.246131048001516, 13.051611297378063 ], [ 80.243419504037519, 13.051472765079595 ], [ 80.240707167237218, 13.051595439333436 ], [ 80.238020150366751, 13.051978138630632 ], [ 80.235384322570511, 13.052617178081441 ], [ 80.232825060554916, 13.053506404875755 ], [ 80.230367004494028, 13.05463725748136 ], [ 80.22803382099643, 13.055998848012054 ], [ 80.225847975405969, 13.057578066975505 ], [ 80.223830515620733, 13.059359709396217 ], [ 80.222000869505692, 13.061326621103825 ], [ 80.220376657845165, 13.063459863783326 ], [ 80.218973524634876, 13.065738897203561 ], [ 80.217804986347929, 13.068141776875107 ], [ 80.216882301629141, 13.070645365239834 ], [ 80.216214362678016, 13.07322555436407 ], [ 80.215807609373002, 13.075857497995816 ], [ 80.215665966973901, 13.078515850755654 ], [ 80.215790808012358, 13.081175012161422 ], [ 80.216180938749559, 13.083809373139118 ], [ 80.216832610343999, 13.086393562647455 ], [ 80.217739554634136, 13.088902692041163 ], [ 80.218893044203952, 13.091312594818808 ], [ 80.220281976164614, 13.093600059444027 ], [ 80.221892978855351, 13.09574305299482 ], [ 80.223710540445339, 13.09772093348284 ], [ 80.225717158204375, 13.099514648792919 ], [ 80.22789350700964, 13.101106920321264 ], [ 80.230218625467941, 13.102482409537833 ], [ 80.232670117860408, 13.103627865862538 ], [ 80.235224369962125, 13.10453225442501 ], [ 80.237856776652933, 13.105186862471758 ], [ 80.240541979120053, 13.105585383390673 ], [ 80.24325410935856, 13.105723977539114 ], [ 80.245967039604466, 13.105601309286282 ], [ 80.248654634285828, 13.105218559910503 ], [ 80.251291002053293, 13.104579416226022 ], [ 80.253850745449625, 13.103690035048588 ], [ 80.2563092058016, 13.102558983843275 ], [ 80.258642700963961, 13.101197158128377 ], [ 80.260828753615741, 13.099617676434216 ], [ 80.262846307901597, 13.097835753832888 ], [ 80.264675932325005, 13.095868555261939 ], [ 80.266300006935239, 13.093735030060387 ], [ 80.26770289300336, 13.091455729316531 ], [ 80.268871083553805, 13.089052607792897 ], [ 80.269793333305032, 13.086548812341851 ], [ 80.270460766773184, 13.083968458855262 ], [ 80.270866963505156, 13.081336399901488 ], [ 80.271008019629974, 13.078677985291701 ] ] ] } },
{ "type": "Feature", "properties": { "element": "node", "id": 310909754, "name": "Hariharan Hospital", "nearest_node": 300187084, "reachable_nodes": 9948, "utilization": "Underutilized", "density_score": 1784, "access_score": 3, "density_class": 3, "util_score": 1, "underserved_score": 7 }, "geometry": { "type": "Polygon", "coordinates": [ [ [ 80.218250950242449, 12.984799135987666 ], [ 80.218126070436227, 12.982139957463787 ], [ 80.217736014692676, 12.979505586847447 ], [ 80.217084547717747, 12.976921393872072 ], [ 80.216177951210796, 12.974412264259046 ], [ 80.215024963072722, 12.972002360111706 ], [ 80.21363669299177, 12.969714887305567 ], [ 80.212026515230136, 12.967571872111579 ], [ 80.210209939652245, 12.965593949199512 ], [ 80.208204462243202, 12.963800163058208 ], [ 80.206029396561235, 12.962207784739558 ], [ 80.203705687749292, 12.960832145685316 ], [ 80.201255710896419, 12.959686490231082 ], [ 80.198703055687901, 12.95878184820209 ], [ 80.196072299412847, 12.958126928822221 ], [ 80.193388770508321, 12.957728036952957 ], [ 80.190678304907649, 12.957589012464611 ], [ 80.187966997529614, 12.957711193320364 ], [ 80.185280951289556, 12.958093402726082 ], [ 80.182646026037858, 12.958731960468461 ], [ 80.180087589831103, 12.959620718331989 ], [ 80.177630274919395, 12.960751119254681 ], [ 80.175297740788395, 12.962112279654898 ], [ 80.173112446528137, 12.963691094139502 ], [ 80.171095434712271, 12.965472361588999 ], [ 80.169266128862432, 12.967438931410202 ], [ 80.167642146443754, 12.969571868553329 ], [ 80.166239129190487, 12.971850635710105 ], [ 80.16507059239575, 12.974253290944203 ], [ 80.164147794619822, 12.976756698856722 ], [ 80.163479629076377, 12.979336753258568 ], [ 80.163072537750125, 12.981968609210664 ], [ 80.162930449081585, 12.984626922201599 ], [ 80.163054739830017, 12.987286092163027 ], [ 80.163444221492995, 12.989920509975422 ], [ 80.164095151426196, 12.992504804091647 ], [ 80.165001268568432, 12.995014084903538 ], [ 80.166153853440534, 12.997424184497264 ], [ 80.167541811851535, 12.999711889486433 ], [ 80.169151781516561, 13.001855164677432 ], [ 80.170968260568216, 13.003833365408955 ], [ 80.172973756730869, 13.005627436515711 ], [ 80.175148955725618, 13.007220095994757 ], [ 80.177472907286372, 13.008596001599486 ], [ 80.179923226995399, 13.009741898750919 ], [ 80.182476311991664, 13.010646748335525 ], [ 80.185107568469533, 13.011301833153173 ], [ 80.187791648769476, 13.011700841984693 ], [ 80.190502695768245, 13.011839930464975 ], [ 80.193214592204299, 13.011717758171665 ], [ 80.195901212525115, 13.011335501569848 ], [ 80.198536674818712, 13.010696842686549 ], [ 80.201095590390238, 13.009807933624074 ], [ 80.203553308567891, 13.008677337254895 ], [ 80.205886154368727, 13.00731594467157 ], [ 80.208071656725394, 13.005736870189896 ], [ 80.210088765067269, 13.003955324920916 ], [ 80.21191805216327, 13.001988470134265 ], [ 80.213541901268982, 12.999855251830791 ], [ 80.214944675773296, 12.997576218123598 ], [ 80.216112869711807, 12.995173321192388 ], [ 80.217035237700017, 12.992669705724351 ], [ 80.217702903040731, 12.990089485884802 ], [ 80.218109442971809, 12.987457512970511 ], [ 80.218250950242449, 12.984799135987666 ] ] ] } },
{ "type": "Feature", "properties": { "element": "node", "id": 310910945, "name": "BM Hospital", "nearest_node": 300188200, "reachable_nodes": 10385, "utilization": "Underutilized", "density_score": 1601, "access_score": 3, "density_class": 2, "util_score": 1, "underserved_score": 6 }, "geometry": { "type": "Polygon", "coordinates": [ [ [ 80.218072396772925, 12.988846280910936 ], [ 80.217947519396546, 12.986187103112814 ], [ 80.21755746176116, 12.983552732786979 ], [ 80.216905988593751, 12.980968539663799 ], [ 80.215999381655877, 12.978459409465566 ], [ 80.21484637895125, 12.976049504300519 ], [ 80.213458090310297, 12.973762030053033 ], [ 80.211847890175477, 12.971619013006835 ], [ 80.210031288627661, 12.969641087848329 ], [ 80.208025781902478, 12.967847299086682 ], [ 80.205850683840353, 12.9662549177977 ], [ 80.203526939895426, 12.964879275450457 ], [ 80.201076925493879, 12.963733616411053 ], [ 80.198524230680889, 12.962828970538155 ], [ 80.195893433124908, 12.962174047091723 ], [ 80.193209861658019, 12.961775150971684 ], [ 80.190499352620847, 12.961636122088793 ], [ 80.187788001347613, 12.961758298448292 ], [ 80.185101911173518, 12.962140503299361 ], [ 80.182466942369288, 12.962779056472812 ], [ 80.179908463408324, 12.963667809797654 ], [ 80.177451106950173, 12.964798206256347 ], [ 80.17511853287867, 12.966159362311174 ], [ 80.172933200666989, 12.967738172611948 ], [ 80.170916153253302, 12.969519436080692 ], [ 80.169086814501625, 12.971486002163845 ], [ 80.16746280219408, 12.973618935848945 ], [ 80.166059758353441, 12.975897699862308 ], [ 80.1648911985301, 12.978300352299108 ], [ 80.163968381507786, 12.980803757788463 ], [ 80.163300200687658, 12.983383810165558 ], [ 80.162893098203966, 12.986015664511532 ], [ 80.162751002607422, 12.988673976330949 ], [ 80.162875290726802, 12.991333145566998 ], [ 80.163264774087907, 12.993967563107132 ], [ 80.163915710032825, 12.996551857406571 ], [ 80.164821837445089, 12.999061138854882 ], [ 80.16597443674894, 13.001471239531371 ], [ 80.167362413616374, 13.003758946038273 ], [ 80.168972405586217, 13.005902223166265 ], [ 80.170788910577315, 13.007880426234161 ], [ 80.172794436064649, 13.009674500052876 ], [ 80.174969667486764, 13.011267162592032 ], [ 80.177293654264616, 13.012643071574258 ], [ 80.179744011640096, 13.013788972386831 ], [ 80.182297136387717, 13.014693825879862 ], [ 80.184928434316916, 13.015348914814656 ], [ 80.187612557366464, 13.01574792793166 ], [ 80.190323647998795, 13.015887020823994 ], [ 80.193035588529256, 13.015764853026562 ], [ 80.195722252977816, 13.015382600961148 ], [ 80.198357759004693, 13.014743946611366 ], [ 80.200916717491324, 13.01385504203636 ], [ 80.203374477350252, 13.012724450066134 ], [ 80.205707363195174, 13.01136306175181 ], [ 80.207892903571619, 13.009783991369172 ], [ 80.209910047541783, 13.008002449991022 ], [ 80.211739367531095, 13.006035598850801 ], [ 80.213363246478437, 13.003902383915571 ], [ 80.214766047486009, 13.001623353267293 ], [ 80.21593426433536, 12.999220459057417 ], [ 80.216856651423072, 12.99671684594802 ], [ 80.217524331870138, 12.994136628082652 ], [ 80.217930882771313, 12.991504656739764 ], [ 80.218072396772925, 12.988846280910936 ] ] ] } },
{ "type": "Feature", "properties": { "element": "node", "id": 311429396, "name": "K.F. Hospital", "nearest_node": 278521101, "reachable_nodes": 7240, "utilization": "Underutilized", "density_score": 1406, "access_score": 3, "density_class": 1, "util_score": 1, "underserved_score": 5 }, "geometry": { "type": "Polygon", "coordinates": [ [ [ 80.211798762623843, 12.973548249688394 ], [ 80.211673950093257, 12.970889070035836 ], [ 80.211283973347975, 12.96825469238356 ], [ 80.210632596326704, 12.965670486537812 ], [ 80.209726099857548, 12.963161338349328 ], [ 80.208573220874541, 12.960751410105903 ], [ 80.207185068013018, 12.958463907920587 ], [ 80.205575014406378, 12.956320858352498 ], [ 80.203758568725235, 12.954342896407184 ], [ 80.201753225707293, 12.952549066953482 ], [ 80.199578297621684, 12.950956641463661 ], [ 80.197254728292748, 12.949580951836095 ], [ 80.194804891473908, 12.948435242894719 ], [ 80.192252375510279, 12.947530544980095 ], [ 80.189621756359003, 12.946875567853436 ], [ 80.186938361145621, 12.946476616930431 ], [ 80.184228024524984, 12.946337532647208 ], [ 80.181516840182084, 12.946459653539021 ], [ 80.178830909854938, 12.946841803384729 ], [ 80.176196092284016, 12.947480302539564 ], [ 80.173637754493896, 12.948369003346837 ], [ 80.171180527790284, 12.949499349288496 ], [ 80.168848070811052, 12.950860457306899 ], [ 80.166662841903175, 12.952439222508165 ], [ 80.164645883009015, 12.954220444242681 ], [ 80.162816617136968, 12.956186972353441 ], [ 80.161192661362051, 12.958319872189087 ], [ 80.159789657155358, 12.960598606798301 ], [ 80.158621119676766, 12.963001234556931 ], [ 80.157698307484608, 12.965504620330435 ], [ 80.15703011392246, 12.968084658143825 ], [ 80.156622981235671, 12.970716503219698 ], [ 80.156480838254168, 12.973374811154281 ], [ 80.156605062251842, 12.976033981931719 ], [ 80.156994465361564, 12.978668406429117 ], [ 80.157645305689073, 12.981252713040012 ], [ 80.158551323031162, 12.98376201204132 ], [ 80.159703798866346, 12.9861721353496 ], [ 80.161091640052021, 12.988459869355561 ], [ 80.162701485432351, 12.990603178591371 ], [ 80.164517834338739, 12.992581418072584 ], [ 80.166523195752504, 12.994375532264833 ], [ 80.168698256697567, 12.995968238753493 ], [ 80.171022068243872, 12.997344194841562 ], [ 80.173472247329784, 12.998490145465176 ], [ 80.176025192457004, 12.999395050996053 ], [ 80.178656311175914, 13.000050193694399 ], [ 80.181340257162816, 13.000449261781698 ], [ 80.184051174596974, 13.000588410319249 ], [ 80.186762947473014, 13.000466298302552 ], [ 80.189449451435934, 13.000084101611677 ], [ 80.19208480570073, 12.999445501691627 ], [ 80.194643622617988, 12.998556650071443 ], [ 80.197101252469395, 12.99742610906484 ], [ 80.199434021124347, 12.996064769225704 ], [ 80.201619458258364, 12.994485744356659 ], [ 80.203636513927052, 12.992704245086212 ], [ 80.205465761403048, 12.990737432236916 ], [ 80.207089584318325, 12.988604251402478 ], [ 80.20849234630748, 12.986325250332825 ], [ 80.209660541518971, 12.983922380892048 ], [ 80.210582924547552, 12.981418787502381 ], [ 80.211250618542195, 12.978838584117383 ], [ 80.211657200455633, 12.976206621877285 ], [ 80.211798762623843, 12.973548249688394 ] ] ] } },
{ "type": "Feature", "properties": { "element": "node", "id": 312000326, "name": "Cancer Institute", "nearest_node": 13774656784, "reachable_nodes": 21812, "utilization": "Balanced", "density_score": 681, "access_score": 2, "density_class": 1, "util_score": 2, "underserved_score": 5 }, "geometry": { "type": "Polygon", "coordinates": [ [ [ 80.267547043517411, 13.006213320734204 ], [ 80.267421639988328, 13.003554140809282 ], [ 80.267031039814015, 13.000919818060057 ], [ 80.266379012948548, 12.998335721726328 ], [ 80.26547184648102, 12.995826736567196 ], [ 80.264318283791738, 12.993417023265582 ], [ 80.262929440085713, 12.9911297858332 ], [ 80.261318695126761, 12.988987048252799 ], [ 80.259501564213593, 12.987009442504402 ], [ 80.2574955486471, 12.985216010012058 ], [ 80.255319967132849, 12.983624018417755 ], [ 80.252995769744416, 12.982248795441231 ], [ 80.250545336238716, 12.981103581419683 ], [ 80.247992260662613, 12.980199401941762 ], [ 80.245361124319984, 12.979544961796805 ], [ 80.242677259278324, 12.979146561255732 ], [ 80.239966504683395, 12.979008035485528 ], [ 80.237254958218301, 12.979130717677494 ], [ 80.234568725088792, 12.979513426241812 ], [ 80.231933666940051, 12.980152476190648 ], [ 80.229375153110851, 12.981041714599829 ], [ 80.22691781660842, 12.98217257980871 ], [ 80.224585317142797, 12.983534183790159 ], [ 80.222400113492867, 12.985113416900553 ], [ 80.220383247387701, 12.986895074004988 ], [ 80.218554140978043, 12.988862000768041 ], [ 80.216930409843727, 12.990995258706461 ], [ 80.215527693336114, 12.993274307420215 ], [ 80.214359503889412, 12.995677202252793 ], [ 80.21343709675493, 12.99818080548318 ], [ 80.212769361417941, 13.000761009021209 ], [ 80.212362735749835, 13.003392966466807 ], [ 80.212221143731426, 13.006051332302688 ], [ 80.212345957357826, 13.008710505920538 ], [ 80.212735983103201, 13.011344878133144 ], [ 80.21338747308846, 13.013929077799865 ], [ 80.214294160856511, 13.01643821619057 ], [ 80.21544732142317, 13.018848126733745 ], [ 80.216835855036777, 13.021135597837795 ], [ 80.218446393850243, 13.023278596540106 ], [ 80.220263430486881, 13.025256480825886 ], [ 80.222269467268802, 13.027050198567059 ], [ 80.224445184675176, 13.028642471159678 ], [ 80.226769627410178, 13.030017960085402 ], [ 80.229220406288377, 13.031163414786741 ], [ 80.231773913990409, 13.032067800425853 ], [ 80.234405552606077, 13.032722404290746 ], [ 80.237089970765794, 13.033120919818824 ], [ 80.239801308067754, 13.033259507424201 ], [ 80.242513444435744, 13.033136831539302 ], [ 80.245200251994405, 13.032754073511557 ], [ 80.247835847023495, 13.032114920229656 ], [ 80.250394839552257, 13.031225528588818 ], [ 80.252852578177269, 13.030094466138284 ], [ 80.255185387735182, 13.028732628485082 ], [ 80.257370797530442, 13.027153134252725 ], [ 80.259387757911909, 13.025371198610873 ], [ 80.261216843105913, 13.023403986599005 ], [ 80.262840438347894, 13.02127044766231 ], [ 80.264242909508795, 13.018991132999433 ], [ 80.265410753582955, 13.016587997487147 ], [ 80.266332728591522, 13.014084188095657 ], [ 80.266999961655571, 13.011503820837779 ], [ 80.26740603420582, 13.008871748405239 ], [ 80.267547043517411, 13.006213320734204 ] ] ] } },
{ "type": "Feature", "properties": { "element": "node", "id": 320275820, "name": "Govt Maternity Hospital", "nearest_node": 2198125458, "reachable_nodes": 22910, "utilization": "Balanced", "density_score": 1604, "access_score": 2, "density_class": 2, "util_score": 2, "underserved_score": 6 }, "geometry": { "type": "Polygon", "coordinates": [ [ [ 80.286657592766801, 13.072177470673886 ], [ 80.286531989757748, 13.069518300986447 ], [ 80.286141120394888, 13.066884004324727 ], [ 80.285488757265952, 13.064299949659278 ], [ 80.284581190733789, 13.061791021326938 ], [ 80.283427168059688, 13.059381379440195 ], [ 80.28203780889848, 13.057094227298576 ], [ 80.280426497988898, 13.054951588038641 ], [ 80.278608756081496, 13.052974092669372 ], [ 80.276602090353251, 13.051180781529169 ], [ 80.274425825753781, 13.049588921071109 ], [ 80.272100918909331, 13.048213837734966 ], [ 80.26964975637587, 13.04706877049993 ], [ 80.267095939181587, 13.046164743532149 ], [ 80.264464055728155, 13.045510460148034 ], [ 80.261779445230758, 13.045112219109466 ], [ 80.25906795396574, 13.044973854052843 ], [ 80.256355686662801, 13.045096696631783 ], [ 80.253668755424258, 13.045479563726188 ], [ 80.251033028577325, 13.046118768839467 ], [ 80.248473881865337, 13.047008157574092 ], [ 80.246015954362335, 13.048139166844855 ], [ 80.24368291145008, 13.049500907261656 ], [ 80.241497217130302, 13.051080267891685 ], [ 80.239479917856031, 13.052862042396136 ], [ 80.237650439957747, 13.054829075331586 ], [ 80.236026402610221, 13.056962427212529 ], [ 80.234623448139573, 13.059241556751259 ], [ 80.233455091305117, 13.061644518526109 ], [ 80.232532589009821, 13.064148174180232 ], [ 80.231864831699752, 13.066728415122794 ], [ 80.231458257505324, 13.069360394592838 ], [ 80.231316789960275, 13.072018766855493 ], [ 80.231441799908893, 13.074677931230459 ], [ 80.231832091980195, 13.077312278605229 ], [ 80.232483915771397, 13.079896438060377 ], [ 80.233391001646154, 13.082405521232058 ], [ 80.234544620814489, 13.084815362057398 ], [ 80.23593366912813, 13.087102749591789 ], [ 80.237544773794028, 13.089245651652645 ], [ 80.239362421987465, 13.091223427131709 ], [ 80.241369110132879, 13.093017024926112 ], [ 80.243545512419132, 13.094609167566821 ], [ 80.245870666928823, 13.095984517769937 ], [ 80.248322177588321, 13.097129826300719 ], [ 80.250876429991152, 13.098034059720154 ], [ 80.253508819010833, 13.098688506778007 ], [ 80.256193986003538, 13.099086862422492 ], [ 80.258906063307123, 13.099225288612979 ], [ 80.261618923670724, 13.099102451346495 ], [ 80.264306432201039, 13.098719533539001 ], [ 80.266942698385833, 13.098080223635954 ], [ 80.269502325755312, 13.097190680061892 ], [ 80.271960656764023, 13.096059471852431 ], [ 80.274294010523732, 13.094697496042786 ], [ 80.276479911087009, 13.093117872611771 ], [ 80.278497304075017, 13.091335817997503 ], [ 80.280326759555919, 13.089368498407858 ], [ 80.281950659216449, 13.08723486434431 ], [ 80.283353366021714, 13.084955467938675 ], [ 80.284521374730076, 13.082552264868172 ], [ 80.285443441816852, 13.080048402762488 ], [ 80.286110693560786, 13.077467998146274 ], [ 80.286516711260091, 13.074835904070371 ], [ 80.286657592766801, 13.072177470673886 ] ] ] } },
{ "type": "Feature", "properties": { "element": "node", "id": 320275824, "name": "Institute of Child Health", "nearest_node": 266205031, "reachable_nodes": 25775, "utilization": "Overloaded", "density_score": 1623, "access_score": 1, "density_class": 2, "util_score": 3, "underserved_score": 6 }, "geometry": { "type": "Polygon", "coordinates": [ [ [ 80.284695642237807, 13.073627689270571 ], [ 80.284570060390976, 13.07096851997138 ], [ 80.284179210541183, 13.068334221591707 ], [ 80.283526865089598, 13.065750163119745 ], [ 80.282619314230345, 13.063241228929892 ], [ 80.281465305075486, 13.060831579191742 ], [ 80.280075957151311, 13.058544417280878 ], [ 80.278464655090076, 13.056401766428152 ], [ 80.276646919558672, 13.054424257754111 ], [ 80.274640257674179, 13.052630931724963 ], [ 80.27246399435046, 13.051039054936579 ], [ 80.270139086202491, 13.049663953985199 ], [ 80.267687919799542, 13.04851886801865 ], [ 80.265134096207476, 13.047614821382302 ], [ 80.262502203889667, 13.046960517580715 ], [ 80.259817582146425, 13.046562255571063 ], [ 80.25710607736184, 13.046423869190347 ], [ 80.254393794394915, 13.046546690296241 ], [ 80.251706845497708, 13.046929535974215 ], [ 80.249071099166088, 13.047568719932841 ], [ 80.246511931329522, 13.048458087977428 ], [ 80.244053981263818, 13.049589077221313 ], [ 80.241720914566358, 13.050950798466825 ], [ 80.239535195466175, 13.052530140965587 ], [ 80.237517870653434, 13.054311898553468 ], [ 80.235688366703016, 13.056278915950312 ], [ 80.234064303039347, 13.058412253820823 ], [ 80.232661322240972, 13.060691371013048 ], [ 80.231492939319992, 13.063094322225211 ], [ 80.230570411430193, 13.065597969203377 ], [ 80.229902629264046, 13.068178203441528 ], [ 80.229496031191587, 13.070810178244619 ], [ 80.229354540977056, 13.073468547924083 ], [ 80.229479529683985, 13.076127711825809 ], [ 80.229869802147064, 13.078762060843069 ], [ 80.230521608153737, 13.081346224041706 ], [ 80.231428678240448, 13.083855313022735 ], [ 80.232582283770967, 13.086265161668026 ], [ 80.233971320730021, 13.088552558958114 ], [ 80.235582416435648, 13.090695472616659 ], [ 80.23740005815101, 13.092673261423634 ], [ 80.239406742364409, 13.094466874147498 ], [ 80.241583143303856, 13.096059033174837 ], [ 80.243908299065936, 13.097434401063138 ], [ 80.246359813565689, 13.098579728406339 ], [ 80.248914072360108, 13.099483981583077 ], [ 80.251546470261189, 13.100138449151574 ], [ 80.254231648539388, 13.10053682586117 ], [ 80.256943739423264, 13.100675273467013 ], [ 80.259656615530318, 13.100552457758576 ], [ 80.262344141814452, 13.100169561442968 ], [ 80.264980427591126, 13.099530272757596 ], [ 80.267540076200291, 13.098640749921749 ], [ 80.269998429890308, 13.097509561770625 ], [ 80.27233180755276, 13.096147605145806 ], [ 80.274517733008366, 13.094567999841171 ], [ 80.276535151636921, 13.092785962120313 ], [ 80.278364633258221, 13.090818658028777 ], [ 80.279988559305963, 13.088685037919349 ], [ 80.281391292490085, 13.086405653790276 ], [ 80.282559327314203, 13.08400246120155 ], [ 80.283481420001692, 13.081498607683082 ], [ 80.284148696584651, 13.078918209678104 ], [ 80.284554738122338, 13.07628612017513 ], [ 80.284695642237807, 13.073627689270571 ] ] ] } },
{ "type": "Feature", "properties": { "element": "node", "id": 320275839, "name": "Institute of Obstetrics and Gynaecology dd", "nearest_node": 2482057614, "reachable_nodes": 25993, "utilization": "Overloaded", "density_score": 1590, "access_score": 1, "density_class": 2, "util_score": 3, "underserved_score": 6 }, "geometry": { "type": "Polygon", "coordinates": [ [ [ 80.286816954598848, 13.073620962056621 ], [ 80.286691349977659, 13.0709617926153 ], [ 80.286300477461182, 13.068327496281729 ], [ 80.285648109668472, 13.065743442023081 ], [ 80.284740537008147, 13.06323451417196 ], [ 80.283586506801242, 13.060824872835848 ], [ 80.282197138775715, 13.058537721308532 ], [ 80.280585817756048, 13.056395082720204 ], [ 80.278768064590366, 13.0544175880729 ], [ 80.276761386564061, 13.052624277697582 ], [ 80.274585108745015, 13.051032418039508 ], [ 80.272260187886374, 13.049657335530323 ], [ 80.2698090106785, 13.04851226914089 ], [ 80.267255178290185, 13.047608243028911 ], [ 80.264623279268562, 13.046953960502334 ], [ 80.261938652977804, 13.046555720314661 ], [ 80.259227145845344, 13.046417356094036 ], [ 80.256514862752653, 13.046540199486095 ], [ 80.25382791595311, 13.046923067363046 ], [ 80.251192173922831, 13.047562273221001 ], [ 80.248633012550528, 13.048451662655571 ], [ 80.246175071050686, 13.049582672575179 ], [ 80.243842014939318, 13.050944413583901 ], [ 80.241656308344815, 13.05252377474369 ], [ 80.239638997838284, 13.054305549711124 ], [ 80.237809509858337, 13.05627258303879 ], [ 80.236185463677018, 13.058405935237868 ], [ 80.234782501705993, 13.060685065018012 ], [ 80.233614138777284, 13.063088026955581 ], [ 80.232691631853314, 13.06559168269248 ], [ 80.232023871425611, 13.068171923637285 ], [ 80.231617295655539, 13.070803903029157 ], [ 80.231475828092996, 13.073462275134014 ], [ 80.231600839583521, 13.076121439273031 ], [ 80.231991134742245, 13.078755786335815 ], [ 80.232642963137664, 13.08133994540572 ], [ 80.233550055089879, 13.083849028122296 ], [ 80.234703681751157, 13.086258868426679 ], [ 80.236092738901633, 13.08854625537885 ], [ 80.237703853663533, 13.090689156801371 ], [ 80.23952151311515, 13.092666931591648 ], [ 80.241528213572465, 13.094460528652972 ], [ 80.243704629105594, 13.096052670522907 ], [ 80.246029797669152, 13.097428019924561 ], [ 80.248481323053596, 13.098573327630541 ], [ 80.251035590709918, 13.099477560209479 ], [ 80.253667995363898, 13.100132006419015 ], [ 80.256353178220138, 13.100530361215394 ], [ 80.259065271462745, 13.100668786566121 ], [ 80.261778147686343, 13.100545948476361 ], [ 80.264465671843823, 13.100163029870149 ], [ 80.267101953271549, 13.099523719200871 ], [ 80.269661595352034, 13.098634174900754 ], [ 80.272119940397459, 13.097502966012781 ], [ 80.27445330738378, 13.096140989579123 ], [ 80.27663922023585, 13.094561365585077 ], [ 80.278656624456218, 13.092779310474647 ], [ 80.280486090004928, 13.090811990460983 ], [ 80.282109998471952, 13.088678356050089 ], [ 80.283512712737945, 13.086398959377547 ], [ 80.284680727490013, 13.083995756123521 ], [ 80.285602799145991, 13.081491893919756 ], [ 80.286270053941479, 13.078911489292075 ], [ 80.286676073146239, 13.076279395291557 ], [ 80.286816954598848, 13.073620962056621 ] ] ] } }
]
}
