{
"type": "FeatureCollection",
"name": "chennai_boundary",
"crs": { "type": "name", "properties": { "name": "urn:ogc:def:crs:OGC:1.3:CRS84" } },
"features": [
{ "type": "Feature", "properties": { }, "geometry": { "type": "Polygon", "coordinates": [ [ [ 80.1841397, 12.973463 ], [ 80.184647100000021, 12.9787682 ], [ 80.1994692, 13.0887983 ], [ 80.2905623, 13.1289367 ], [ 80.2960584, 13.122775 ], [ 80.281264, 13.0829605 ], [ 80.2572467, 13.0336624 ], [ 80.239884, 13.0061338 ], [ 80.1841397, 12.973463 ] ] ] } }
]
}
