{
"type": "FeatureCollection",
"name": "hospitals_dashboard",
"crs": { "type": "name", "properties": { "name": "urn:ogc:def:crs:OGC:1.3:CRS84" } },
"features": [
{ "type": "Feature", "properties": { "element": "node", "id": 248420920, "name": "Kalaignar Karunanidhi Nagar", "nearest_node": 7171465295, "reachable_nodes": 23475, "utilization": "Balanced", "density_score": 2265, "access_score": 2, "density_class": 3, "util_score": 2, "underserved_score": 7 }, "geometry": { "type": "Point", "coordinates": [ 80.2052158, 13.0386493 ] } },
{ "type": "Feature", "properties": { "element": "node", "id": 248560797, "name": "Kasimedu", "nearest_node": 2271733882, "reachable_nodes": 14227, "utilization": "Underutilized", "density_score": 1183, "access_score": 3, "density_class": 1, "util_score": 1, "underserved_score": 5 }, "geometry": { "type": "Point", "coordinates": [ 80.2960584, 13.122775 ] } },
{ "type": "Feature", "properties": { "element": "node", "id": 258978416, "name": "Amrit Hospital", "nearest_node": 247438113, "reachable_nodes": 21819, "utilization": "Balanced", "density_score": 1558, "access_score": 2, "density_class": 1, "util_score": 2, "underserved_score": 5 }, "geometry": { "type": "Point", "coordinates": [ 80.279291200000017, 13.0922007 ] } },
{ "type": "Feature", "properties": { "element": "node", "id": 258978417, "name": "Vikram Hospital", "nearest_node": 254141777, "reachable_nodes": 21056, "utilization": "Balanced", "density_score": 2004, "access_score": 2, "density_class": 3, "util_score": 2, "underserved_score": 7 }, "geometry": { "type": "Point", "coordinates": [ 80.2796178, 13.0985007 ] } },
{ "type": "Feature", "properties": { "element": "node", "id": 262452334, "name": "City Tower Hospitals", "nearest_node": 403772084, "reachable_nodes": 29448, "utilization": "Overloaded", "density_score": 1952, "access_score": 1, "density_class": 3, "util_score": 3, "underserved_score": 7 }, "geometry": { "type": "Point", "coordinates": [ 80.2160862, 13.08438 ] } },
{ "type": "Feature", "properties": { "element": "node", "id": 289486820, "name": "Apollo Hospitals, Tondiarpet", "nearest_node": 7791666274, "reachable_nodes": 14762, "utilization": "Underutilized", "density_score": 1445, "access_score": 3, "density_class": 1, "util_score": 1, "underserved_score": 5 }, "geometry": { "type": "Point", "coordinates": [ 80.2905623, 13.1289367 ] } },
{ "type": "Feature", "properties": { "element": "node", "id": 295544111, "name": "K.H.M.Hospital", "nearest_node": 403772085, "reachable_nodes": 31080, "utilization": "Overloaded", "density_score": 1904, "access_score": 1, "density_class": 3, "util_score": 3, "underserved_score": 7 }, "geometry": { "type": "Point", "coordinates": [ 80.2130723, 13.0844424 ] } },
{ "type": "Feature", "properties": { "element": "node", "id": 295552091, "name": "Sundaram Medical Foundation", "nearest_node": 403775512, "reachable_nodes": 29837, "utilization": "Overloaded", "density_score": 1807, "access_score": 1, "density_class": 3, "util_score": 3, "underserved_score": 7 }, "geometry": { "type": "Point", "coordinates": [ 80.2069819, 13.08217 ] } },
{ "type": "Feature", "properties": { "element": "node", "id": 295552092, "name": "Sri Devi Speciality Hospial", "nearest_node": 295544658, "reachable_nodes": 30388, "utilization": "Overloaded", "density_score": 2011, "access_score": 1, "density_class": 3, "util_score": 3, "underserved_score": 7 }, "geometry": { "type": "Point", "coordinates": [ 80.1994692, 13.0887983 ] } },
{ "type": "Feature", "properties": { "element": "node", "id": 303590777, "name": "Corporation Hospital", "nearest_node": 249797441, "reachable_nodes": 17064, "utilization": "Underutilized", "density_score": 1701, "access_score": 3, "density_class": 2, "util_score": 1, "underserved_score": 6 }, "geometry": { "type": "Point", "coordinates": [ 80.2572467, 13.0336624 ] } },
{ "type": "Feature", "properties": { "element": "node", "id": 308811614, "name": "Hindu Mission Health Services, Kanchipuram", "nearest_node": 300378746, "reachable_nodes": 7347, "utilization": "Underutilized", "density_score": 1472, "access_score": 3, "density_class": 1, "util_score": 1, "underserved_score": 5 }, "geometry": { "type": "Point", "coordinates": [ 80.184647100000021, 12.9787682 ] } },
{ "type": "Feature", "properties": { "element": "node", "id": 310504820, "name": "Goverment dental hospital & collage", "nearest_node": 303283783, "reachable_nodes": 21687, "utilization": "Balanced", "density_score": 1101, "access_score": 2, "density_class": 1, "util_score": 2, "underserved_score": 5 }, "geometry": { "type": "Point", "coordinates": [ 80.281264, 13.0829605 ] } },
{ "type": "Feature", "properties": { "element": "node", "id": 310732936, "name": "Kilpauk Medical College", "nearest_node": 249075309, "reachable_nodes": 29075, "utilization": "Overloaded", "density_score": 1561, "access_score": 1, "density_class": 2, "util_score": 3, "underserved_score": 6 }, "geometry": { "type": "Point", "coordinates": [ 80.2433369, 13.0785984 ] } },
{ "type": "Feature", "properties": { "element": "node", "id": 310909754, "name": "Hariharan Hospital", "nearest_node": 300187084, "reachable_nodes": 9948, "utilization": "Underutilized", "density_score": 1784, "access_score": 3, "density_class": 3, "util_score": 1, "underserved_score": 7 }, "geometry": { "type": "Point", "coordinates": [ 80.1905906, 12.9847145 ] } },
{ "type": "Feature", "properties": { "element": "node", "id": 310910945, "name": "BM Hospital", "nearest_node": 300188200, "reachable_nodes": 10385, "utilization": "Underutilized", "density_score": 1601, "access_score": 3, "density_class": 2, "util_score": 1, "underserved_score": 6 }, "geometry": { "type": "Point", "coordinates": [ 80.1904116, 12.9887616 ] } },
{ "type": "Feature", "properties": { "element": "node", "id": 311429396, "name": "K.F. Hospital", "nearest_node": 278521101, "reachable_nodes": 7240, "utilization": "Underutilized", "density_score": 1406, "access_score": 3, "density_class": 1, "util_score": 1, "underserved_score": 5 }, "geometry": { "type": "Point", "coordinates": [ 80.1841397, 12.973463 ] } },
{ "type": "Feature", "properties": { "element": "node", "id": 312000326, "name": "Cancer Institute", "nearest_node": 13774656784, "reachable_nodes": 21812, "utilization": "Balanced", "density_score": 681, "access_score": 2, "density_class": 1, "util_score": 2, "underserved_score": 5 }, "geometry": { "type": "Point", "coordinates": [ 80.239884, 13.0061338 ] } },
{ "type": "Feature", "properties": { "element": "node", "id": 320275820, "name": "Govt Maternity Hospital", "nearest_node": 2198125458, "reachable_nodes": 22910, "utilization": "Balanced", "density_score": 1604, "access_score": 2, "density_class": 2, "util_score": 2, "underserved_score": 6 }, "geometry": { "type": "Point", "coordinates": [ 80.2589871, 13.0720996 ] } },
{ "type": "Feature", "properties": { "element": "node", "id": 320275824, "name": "Institute of Child Health", "nearest_node": 266205031, "reachable_nodes": 25775, "utilization": "Overloaded", "density_score": 1623, "access_score": 1, "density_class": 2, "util_score": 3, "underserved_score": 6 }, "geometry": { "type": "Point", "coordinates": [ 80.257025, 13.0735496 ] } },
{ "type": "Feature", "properties": { "element": "node", "id": 320275839, "name": "Institute of Obstetrics and Gynaecology dd", "nearest_node": 2482057614, "reachable_nodes": 25993, "utilization": "Overloaded", "density_score": 1590, "access_score": 1, "density_class": 2, "util_score": 3, "underserved_score": 6 }, "geometry": { "type": "Point", "coordinates": [ 80.2591463, 13.0735431 ] } }
]
}
