{
"type": "FeatureCollection",
"name": "underserved_dashboard",
"crs": { "type": "name", "properties": { "name": "urn:ogc:def:crs:OGC:1.3:CRS84" } },
"features": [
{ "type": "Feature", "properties": { "element": "node", "id": 248420920, "name": "Kalaignar Karunanidhi Nagar", "nearest_node": 7171465295, "reachable_nodes": 23475, "utilization": "Balanced", "density_score": 2265, "access_score": 2, "density_class": 3, "util_score": 2, "underserved_score": 7, "risk": 7, "risk_level": "High Risk" }, "geometry": { "type": "Polygon", "coordinates": [ [ [ 80.223660063502464, 13.03870524072453 ], [ 80.223576776199138, 13.03693246091686 ], [ 80.223316665215393, 13.035176221300931 ], [ 80.222882239248108, 13.033453435111223 ], [ 80.22227768550178, 13.03178069306194 ], [ 80.221508829231283, 13.030174103594854 ], [ 80.220583077523813, 13.028649137783958 ], [ 80.219509347865639, 13.027220480389049 ], [ 80.218297982185788, 13.02590188849093 ], [ 80.216960647206918, 13.024706059067304 ], [ 80.215510222065376, 13.023644506782317 ], [ 80.213960674283257, 13.022727453164071 ], [ 80.212326925286931, 13.02196372823467 ], [ 80.210624706765657, 13.021360685537582 ], [ 80.208870409251716, 13.020924131378125 ], [ 80.207080924376399, 13.020658268956291 ], [ 80.205273482317708, 13.02056565792803 ], [ 80.203465485999985, 13.020647189782844 ], [ 80.201674343637251, 13.020902079273812 ], [ 80.199917301227416, 13.021327871981905 ], [ 80.19821127660515, 13.021920467941737 ], [ 80.196572696645873, 13.02267416110163 ], [ 80.195017339183991, 13.023581694238855 ], [ 80.193560181163022, 13.024634328802728 ], [ 80.192215254476253, 13.025821929014626 ], [ 80.19099551088334, 13.02713305941721 ], [ 80.189912697301864, 13.028555094935886 ], [ 80.188977242673715, 13.030074342395059 ], [ 80.188198157496174, 13.031676172321662 ], [ 80.187582946986353, 13.033345159769283 ], [ 80.187137538717735, 13.035065232809131 ], [ 80.186866225428474, 13.036819827260182 ], [ 80.186771623556922, 13.038592046170235 ], [ 80.186854647907765, 13.040364822513741 ], [ 80.187114502698492, 13.042121083540504 ], [ 80.187548689077587, 13.043843915193225 ], [ 80.188153029047797, 13.045516725010588 ], [ 80.188921705569513, 13.04712340194653 ], [ 80.189847318463222, 13.04864847156569 ], [ 80.19092095557717, 13.050077245118963 ], [ 80.19213227853875, 13.051395961061658 ], [ 80.193469622266946, 13.05259191764911 ], [ 80.194920107289207, 13.05365359533033 ], [ 80.196469763782218, 13.054570767758308 ], [ 80.198103666141975, 13.055334600345152 ], [ 80.199806076785464, 13.055937735410186 ], [ 80.201560597797339, 13.056374363098431 ], [ 80.203350328957356, 13.056640277384227 ], [ 80.205158030622925, 13.056732916618516 ], [ 80.206966289893174, 13.056651388227865 ], [ 80.208757688448955, 13.056396477326064 ], [ 80.210514970446994, 13.055970639154946 ], [ 80.212221208845406, 13.055377975427009 ], [ 80.21385996855345, 13.054624194798244 ], [ 80.215415464829078, 13.053716557852741 ], [ 80.216872715394231, 13.052663807130489 ], [ 80.218217684799242, 13.051476082874007 ], [ 80.219437419642759, 13.050164825307602 ], [ 80.220520173343488, 13.048742664392702 ], [ 80.221455519260701, 13.047223298123813 ], [ 80.222234451074826, 13.045621360539778 ], [ 80.222849469462403, 13.043952280724234 ], [ 80.223294654233143, 13.042232134155613 ], [ 80.223565721237748, 13.040477487840613 ], [ 80.223660063502464, 13.03870524072453 ] ] ] } },
{ "type": "Feature", "properties": { "element": "node", "id": 258978417, "name": "Vikram Hospital", "nearest_node": 254141777, "reachable_nodes": 21056, "utilization": "Balanced", "density_score": 2004, "access_score": 2, "density_class": 3, "util_score": 2, "underserved_score": 7, "risk": 7, "risk_level": "High Risk" }, "geometry": { "type": "Polygon", "coordinates": [ [ [ 80.298066822708691, 13.098551570754459 ], [ 80.297983006613364, 13.096778793686218 ], [ 80.297722326229533, 13.095022605617414 ], [ 80.297287295749427, 13.093299919263069 ], [ 80.296682108205431, 13.091627324352878 ], [ 80.295912594956548, 13.090020927889443 ], [ 80.294986169411573, 13.088496199067626 ], [ 80.293911755535106, 13.087067820347022 ], [ 80.292699701829278, 13.085749546109991 ], [ 80.291361681622035, 13.084554070264099 ], [ 80.289910580624266, 13.083492904061664 ], [ 80.288360372839563, 13.082576265310365 ], [ 80.286725986021352, 13.081812980039206 ], [ 80.285023157971779, 13.081210397564256 ], [ 80.283268285063855, 13.080774319769576 ], [ 80.281478264442711, 13.080508945282224 ], [ 80.279670331420917, 13.080416829076968 ], [ 80.27786189362979, 13.080498857898327 ], [ 80.276070363518173, 13.080754241735464 ], [ 80.274312990806521, 13.081180521431575 ], [ 80.272606696504312, 13.081773592354338 ], [ 80.270967910083826, 13.08252774390005 ], [ 80.269412411373295, 13.083435714451888 ], [ 80.267955178687586, 13.084488761264495 ], [ 80.266610244655269, 13.085676744603727 ], [ 80.265390561127589, 13.086988225333414 ], [ 80.264307874468201, 13.088410575011812 ], [ 80.263372612424007, 13.089930097440034 ], [ 80.262593783666716, 13.09153216049463 ], [ 80.261978890973779, 13.093201336977293 ], [ 80.26153385888712, 13.094921553127792 ], [ 80.261262976549745, 13.096676243372162 ], [ 80.261168856274594, 13.098448509817759 ], [ 80.261252408249646, 13.100221284960812 ], [ 80.261512831627883, 13.101977496040524 ], [ 80.261947622093714, 13.10370022945758 ], [ 80.262552595838329, 13.105372893673691 ], [ 80.263321929718899, 13.106979379022862 ], [ 80.264248217219688, 13.108504212894417 ], [ 80.265322539681051, 13.109932708791744 ], [ 80.266534552113896, 13.11125110782946 ], [ 80.267872582776334, 13.112446711303972 ], [ 80.269323745555738, 13.113508003058268 ], [ 80.270874064074263, 13.114424760459784 ], [ 80.272508606323044, 13.115188152919846 ], [ 80.274211628526871, 13.115790827003181 ], [ 80.275966726851408, 13.116226977305262 ], [ 80.277756995488957, 13.11649240241262 ], [ 80.2795651895958, 13.116584545405182 ], [ 80.281373891507243, 13.11650251850901 ], [ 80.283165678624485, 13.11624711166095 ], [ 80.284923291350452, 13.11582078490212 ], [ 80.286629799452058, 13.11522764467342 ], [ 80.288268765240829, 13.114473404241947 ], [ 80.289824401995531, 13.113565328640357 ], [ 80.291281726096315, 13.112512164651012 ], [ 80.292626701401574, 13.111324056511094 ], [ 80.293846374474001, 13.110012448152787 ], [ 80.294928999351725, 13.108589972922537 ], [ 80.295864150662069, 13.107070331844115 ], [ 80.296642823988762, 13.105468161600632 ], [ 80.297257522527474, 13.103798893509607 ], [ 80.29770232919752, 13.102078604851718 ], [ 80.297972963518532, 13.100323863987358 ], [ 80.298066822708691, 13.098551570754459 ] ] ] } },
{ "type": "Feature", "properties": { "element": "node", "id": 262452334, "name": "City Tower Hospitals", "nearest_node": 403772084, "reachable_nodes": 29448, "utilization": "Overloaded", "density_score": 1952, "access_score": 1, "density_class": 3, "util_score": 3, "underserved_score": 7, "risk": 7, "risk_level": "High Risk" }, "geometry": { "type": "Polygon", "coordinates": [ [ [ 80.234533905394471, 13.084435356476099 ], [ 80.234450543906547, 13.082662581194763 ], [ 80.234190326335721, 13.080906351706625 ], [ 80.233755762418284, 13.079183581143745 ], [ 80.233151040698488, 13.077510860063986 ], [ 80.23238198805808, 13.075904296700561 ], [ 80.23145601348206, 13.074379361868971 ], [ 80.230382036607068, 13.072950740023376 ], [ 80.229170401744099, 13.071632187894958 ], [ 80.227832778206434, 13.070436402071516 ], [ 80.226382047904806, 13.069374896791013 ], [ 80.224832181292882, 13.068457893123417 ], [ 80.223198102857907, 13.067694220605393 ], [ 80.221495547450246, 13.067091232272494 ], [ 80.219740908833273, 13.066654733904661 ], [ 80.217951081909106, 13.066388928164196 ], [ 80.216143300135087, 13.066296374162205 ], [ 80.214334969692501, 13.066377962841427 ], [ 80.212543501999079, 13.066632908411417 ], [ 80.210786146172964, 13.067058755917964 ], [ 80.209079823055916, 13.0676514048738 ], [ 80.207440962388887, 13.068405148723457 ], [ 80.205885344702963, 13.069312729763132 ], [ 80.204427949443726, 13.07036540898812 ], [ 80.203082810788047, 13.071553050196927 ], [ 80.201862882538748, 13.072864217544307 ], [ 80.200779913396303, 13.074286285606156 ], [ 80.199844333808002, 13.075805560898919 ], [ 80.199065155484163, 13.077407413685878 ], [ 80.198449884550641, 13.079076418803618 ], [ 80.198004449175968, 13.080796504155007 ], [ 80.19773314237365, 13.082551105440839 ], [ 80.197638580534303, 13.084323325642069 ], [ 80.197721678091796, 13.086096097718283 ], [ 80.197981638572685, 13.087852348956641 ], [ 80.198415962120535, 13.089575165389244 ], [ 80.199020469428291, 13.091247954695488 ], [ 80.199789341854029, 13.092854606020246 ], [ 80.200715177338211, 13.094379645167715 ], [ 80.201789061589466, 13.095808383674942 ], [ 80.203000653856293, 13.0971270603275 ], [ 80.204338286462331, 13.098322973752193 ], [ 80.205789077148381, 13.099384604807421 ], [ 80.207339053140188, 13.100301727589763 ], [ 80.208973285747149, 13.10106550798503 ], [ 80.210676034194165, 13.10166858881202 ], [ 80.212430897299427, 13.102105160736286 ], [ 80.214220971533877, 13.102371018268792 ], [ 80.216029013936179, 13.1024636003081 ], [ 80.217837608309239, 13.102382014834006 ], [ 80.219629333092627, 13.102127047513783 ], [ 80.221386929288386, 13.101701154137498 ], [ 80.22309346681746, 13.10110843695516 ], [ 80.224732507699159, 13.100354605144155 ], [ 80.226288264476906, 13.099446919788578 ], [ 80.227745752359823, 13.098394123901949 ], [ 80.229090933611616, 13.097206358168998 ], [ 80.230310852792513, 13.095895063220366 ], [ 80.231393761550507, 13.094472869383802 ], [ 80.232329231758882, 13.092953474976312 ], [ 80.233108255910707, 13.091351514312127 ], [ 80.233723333804903, 13.089682416700313 ], [ 80.2341685446913, 13.087962257792508 ], [ 80.234439604183365, 13.086207604714643 ], [ 80.234533905394471, 13.084435356476099 ] ] ] } },
{ "type": "Feature", "properties": { "element": "node", "id": 295544111, "name": "K.H.M.Hospital", "nearest_node": 403772085, "reachable_nodes": 31080, "utilization": "Overloaded", "density_score": 1904, "access_score": 1, "density_class": 3, "util_score": 3, "underserved_score": 7, "risk": 7, "risk_level": "High Risk" }, "geometry": { "type": "Polygon", "coordinates": [ [ [ 80.231519996815692, 13.084497972086167 ], [ 80.231436656926903, 13.082725197031088 ], [ 80.231176460825168, 13.080968965691451 ], [ 80.23074191804028, 13.07924619121798 ], [ 80.230137216913434, 13.077573464206942 ], [ 80.22936818412866, 13.075966892949362 ], [ 80.228442228480461, 13.074441948337315 ], [ 80.227368269424019, 13.07301331491955 ], [ 80.2261566510996, 13.071694749538958 ], [ 80.224819042662176, 13.070498948911039 ], [ 80.223368325877928, 13.069437427416249 ], [ 80.221818471071302, 13.068520406280451 ], [ 80.220184402616638, 13.067756715208134 ], [ 80.218481855268863, 13.067153707412977 ], [ 80.216727222714368, 13.066717188861697 ], [ 80.214937399797293, 13.06645136241019 ], [ 80.213129619936666, 13.066358787368198 ], [ 80.211321289295412, 13.066440354880219 ], [ 80.209529819293081, 13.066695279358804 ], [ 80.207772459069773, 13.067121106052021 ], [ 80.206066129509153, 13.067713734672283 ], [ 80.204427260413624, 13.068467458859301 ], [ 80.202871632394718, 13.069375021098075 ], [ 80.201414224996697, 13.070427682564558 ], [ 80.200069072512449, 13.071615307228031 ], [ 80.198849128877043, 13.072926459402501 ], [ 80.197766142938207, 13.074348513810074 ], [ 80.196830545304095, 13.075867777098949 ], [ 80.196051347858017, 13.07746961964842 ], [ 80.19543605690923, 13.079138616394221 ], [ 80.194990600818457, 13.080858695320515 ], [ 80.194719272798281, 13.082613292190736 ], [ 80.194624689443387, 13.0843855100292 ], [ 80.19470776539481, 13.08615828181911 ], [ 80.194967704387238, 13.087914534851254 ], [ 80.195402006771459, 13.089637355141281 ], [ 80.196006493444727, 13.091310150332205 ], [ 80.196775345964355, 13.092916809512907 ], [ 80.197701162463332, 13.094441858412466 ], [ 80.198775028833893, 13.095870608474426 ], [ 80.199986604497639, 13.097189298373323 ], [ 80.201324221939061, 13.098385226608489 ], [ 80.2027749990459, 13.0994468738956 ], [ 80.204324963175608, 13.100364014174652 ], [ 80.20595918575259, 13.101127813162558 ], [ 80.207661926099092, 13.101730913498493 ], [ 80.209416783111877, 13.102167505659462 ], [ 80.211206853321016, 13.102433383960776 ], [ 80.213014893804186, 13.102525987100135 ], [ 80.214823488382876, 13.102444422853281 ], [ 80.216615215494542, 13.102189476682186 ], [ 80.218372816118546, 13.101763604172405 ], [ 80.220079360132758, 13.101170907372227 ], [ 80.22171840949342, 13.100417095262081 ], [ 80.223274176661533, 13.099509428735777 ], [ 80.224731676745407, 13.098456650625085 ], [ 80.226076871890257, 13.097268901443304 ], [ 80.227296806521636, 13.095957621661587 ], [ 80.228379732137839, 13.094535441461701 ], [ 80.229315220448854, 13.093016059029583 ], [ 80.230094263772614, 13.091414108564539 ], [ 80.230709361722674, 13.089745019277977 ], [ 80.231154593355171, 13.088024866742019 ], [ 80.231425674083312, 13.086270218021999 ], [ 80.231519996815692, 13.084497972086167 ] ] ] } },
{ "type": "Feature", "properties": { "element": "node", "id": 295552091, "name": "Sundaram Medical Foundation", "nearest_node": 403775512, "reachable_nodes": 29837, "utilization": "Overloaded", "density_score": 1807, "access_score": 1, "density_class": 3, "util_score": 3, "underserved_score": 7, "risk": 7, "risk_level": "High Risk" }, "geometry": { "type": "Polygon", "coordinates": [ [ [ 80.225429400990876, 13.082225997719503 ], [ 80.225346104559932, 13.080453222856022 ], [ 80.225085953373323, 13.078696987607671 ], [ 80.224651456528093, 13.076974205164589 ], [ 80.224046801923265, 13.075301466201514 ], [ 80.223277815795427, 13.073694879126144 ], [ 80.222351906490729, 13.072169914984261 ], [ 80.221277993019399, 13.070741258513836 ], [ 80.220066419084233, 13.069422666780602 ], [ 80.21872885341449, 13.068226836754363 ], [ 80.217278177366452, 13.067165283098868 ], [ 80.215728360874238, 13.066248227349528 ], [ 80.21409432794519, 13.065484499543654 ], [ 80.212391812994056, 13.064881453247841 ], [ 80.210637209396964, 13.06444489479845 ], [ 80.208847411720726, 13.064179027434243 ], [ 80.20703965314253, 13.064086410857387 ], [ 80.205231339621264, 13.064167936610676 ], [ 80.203439882412155, 13.064422819507039 ], [ 80.201682530532253, 13.064848605193223 ], [ 80.199976204784647, 13.065441193774866 ], [ 80.198337334934408, 13.066194879275681 ], [ 80.196781701599321, 13.067102404551877 ], [ 80.195324284373598, 13.068155031134234 ], [ 80.193979117643153, 13.069342623327151 ], [ 80.19275915547847, 13.070653745756832 ], [ 80.191676146903788, 13.072075773431671 ], [ 80.190740522743226, 13.073595013257492 ], [ 80.189961295133585, 13.075196835840078 ], [ 80.189345970672719, 13.076865816308297 ], [ 80.188900478042271, 13.078585882804214 ], [ 80.188629110805223, 13.080340471212361 ], [ 80.188534485932664, 13.082112684640123 ], [ 80.188617518464554, 13.08388545611489 ], [ 80.188877412553182, 13.085641712932265 ], [ 80.189311668981617, 13.087364541073221 ], [ 80.189916109089936, 13.089037348106878 ], [ 80.190684914884528, 13.090644023009629 ], [ 80.19161068494931, 13.092169091360526 ], [ 80.192684505625039, 13.093597864416914 ], [ 80.193896036774959, 13.094916580632731 ], [ 80.195233611314023, 13.096112538254365 ], [ 80.19668434754513, 13.097174217714649 ], [ 80.198234273221345, 13.098091392643573 ], [ 80.199868460139442, 13.098855228423819 ], [ 80.201571167966989, 13.099458367339388 ], [ 80.203325995915691, 13.099894999494602 ], [ 80.205116040797051, 13.10016091881822 ], [ 80.206924059933925, 13.100253563611304 ], [ 80.208732637354288, 13.100172041246722 ], [ 80.210524351661419, 13.099917136781333 ], [ 80.212281943958132, 13.099491305397251 ], [ 80.213988484202261, 13.098898648745008 ], [ 80.21562753438576, 13.098144875416798 ], [ 80.217183306960706, 13.09723724593157 ], [ 80.218640816982003, 13.096184502763235 ], [ 80.219986026497665, 13.094996786087737 ], [ 80.221205979792984, 13.093685536062662 ], [ 80.222288928184568, 13.092263382583042 ], [ 80.223224443161087, 13.090744023577647 ], [ 80.22400351678165, 13.08914209302071 ], [ 80.224618648366146, 13.087473019932752 ], [ 80.225063916644984, 13.085752879731029 ], [ 80.225335036676952, 13.083998239363485 ], [ 80.225429400990876, 13.082225997719503 ] ] ] } },
{ "type": "Feature", "properties": { "element": "node", "id": 295552092, "name": "Sri Devi Speciality Hospial", "nearest_node": 295544658, "reachable_nodes": 30388, "utilization": "Overloaded", "density_score": 2011, "access_score": 1, "density_class": 3, "util_score": 3, "underserved_score": 7, "risk": 7, "risk_level": "High Risk" }, "geometry": { "type": "Polygon", "coordinates": [ [ [ 80.217917160470634, 13.088854862526473 ], [ 80.217833918414456, 13.087082089029993 ], [ 80.217573816644219, 13.085325849701249 ], [ 80.217139363783716, 13.083603057771485 ], [ 80.216534747311286, 13.081930304008274 ], [ 80.215765793099408, 13.080323696962926 ], [ 80.214839909189976, 13.078798707874205 ], [ 80.213766014351648, 13.077370021720517 ], [ 80.212554452110652, 13.076051395853204 ], [ 80.211216891086181, 13.074855527570081 ], [ 80.209766212591887, 13.073793931902177 ], [ 80.208216386587097, 13.07287683078798 ], [ 80.206582337171895, 13.072113054699837 ], [ 80.204879798920246, 13.071509957667235 ], [ 80.203125165432638, 13.071073346512881 ], [ 80.201335331562973, 13.07080742498075 ], [ 80.199527530835752, 13.070714753292336 ], [ 80.197719169613919, 13.070796223518929 ], [ 80.195927659609822, 13.071051051006146 ], [ 80.194170250346303, 13.071476781932549 ], [ 80.192463863176144, 13.072069316929671 ], [ 80.190824928452884, 13.072822950536189 ], [ 80.189269227415934, 13.073730426107423 ], [ 80.187811740308476, 13.074783005652655 ], [ 80.186466502186562, 13.075970553929533 ], [ 80.185246467805698, 13.077281635987926 ], [ 80.184163386883441, 13.078703627226163 ], [ 80.183227690939049, 13.080222834902505 ], [ 80.182448392799515, 13.081824629934198 ], [ 80.181832999741388, 13.083493587717543 ], [ 80.181387441107134, 13.085213636615345 ], [ 80.181116011096023, 13.086968212683974 ], [ 80.181021327285023, 13.088740419152 ], [ 80.181104305283512, 13.090513189116093 ], [ 80.181364149771255, 13.092269449888473 ], [ 80.181798362011648, 13.093992287413831 ], [ 80.182402763773268, 13.095665109172383 ], [ 80.183171537434873, 13.097271803999796 ], [ 80.184097281892974, 13.098796897283892 ], [ 80.18517108373797, 13.100225700042092 ], [ 80.186382603017321, 13.101544450442015 ], [ 80.187720172762837, 13.10274044640013 ], [ 80.189170911325689, 13.103802167978921 ], [ 80.190720846438182, 13.104719388401215 ], [ 80.192355049807276, 13.10548327260973 ], [ 80.194057780942643, 13.106086462419963 ], [ 80.195812638831399, 13.106523147443824 ], [ 80.197602719995999, 13.106789121098565 ], [ 80.19941078140856, 13.10688182115965 ], [ 80.201219406688139, 13.106800354465438 ], [ 80.203011173974772, 13.10654550553458 ], [ 80.20476882385843, 13.106119729012567 ], [ 80.206475425739399, 13.105527126020089 ], [ 80.208114541012947, 13.104773404631489 ], [ 80.209670381501184, 13.10386582486486 ], [ 80.211127961601946, 13.102813128715104 ], [ 80.212473242685434, 13.101625455905605 ], [ 80.213693268345239, 13.100314246172228 ], [ 80.214776289198866, 13.098892129023112 ], [ 80.215711876035527, 13.097372802038688 ], [ 80.21649102022117, 13.095770898886641 ], [ 80.217106220395578, 13.094101848325682 ], [ 80.217551554628727, 13.092381725558393 ], [ 80.217822737344918, 13.090627097367166 ], [ 80.217917160470634, 13.088854862526473 ] ] ] } },
{ "type": "Feature", "properties": { "element": "node", "id": 310909754, "name": "Hariharan Hospital", "nearest_node": 300187084, "reachable_nodes": 9948, "utilization": "Underutilized", "density_score": 1784, "access_score": 3, "density_class": 3, "util_score": 1, "underserved_score": 7, "risk": 7, "risk_level": "High Risk" }, "geometry": { "type": "Polygon", "coordinates": [ [ [ 80.209030811768173, 12.984771250865675 ], [ 80.20894762399864, 12.982998466020106 ], [ 80.208687650571946, 12.981242213591466 ], [ 80.208253398845187, 12.979519406943901 ], [ 80.207649054331782, 12.977846636995993 ], [ 80.206880440261187, 12.976240012466389 ], [ 80.205954961380598, 12.974715004775433 ], [ 80.20488153254459, 12.973286299095134 ], [ 80.203670492784283, 12.971967652979995 ], [ 80.202333505686227, 12.97077176393805 ], [ 80.200883447042401, 12.969710147214995 ], [ 80.19933428085443, 12.96879302496577 ], [ 80.197700924885538, 12.96802922787837 ], [ 80.195999107054149, 12.967426110194589 ], [ 80.194245214049488, 12.966989478943646 ], [ 80.192456133624333, 12.96672353806798 ], [ 80.19064909207917, 12.966630847977376 ], [ 80.188841488498525, 12.966712300919367 ], [ 80.187050727330714, 12.966967112402095 ], [ 80.185294050917562, 12.967392828751533 ], [ 80.183588373581998, 12.967985350730309 ], [ 80.181950118865316, 12.96873897299103 ], [ 80.180395061477171, 12.969646438985082 ], [ 80.178938175475395, 12.970699010799537 ], [ 80.177593490134413, 12.971886553251386 ], [ 80.176373954886998, 12.973197631431361 ], [ 80.175291314638258, 12.974619620760414 ], [ 80.174355996651755, 12.976138828501504 ], [ 80.173577010096963, 12.977740625559132 ], [ 80.172961859227087, 12.979409587300038 ], [ 80.172516471025318, 12.981129642041243 ], [ 80.172245138019491, 12.98288422577793 ], [ 80.172150476820264, 12.984656441662818 ], [ 80.172233402786304, 12.986429222702853 ], [ 80.172493121066069, 12.988185496107524 ], [ 80.17292713410761, 12.989908347706592 ], [ 80.173531265570006, 12.991581184854008 ], [ 80.174299700411282, 12.993187896248692 ], [ 80.17522504077192, 12.994713007132118 ], [ 80.17629837712056, 12.996141828366659 ], [ 80.177509373980342, 12.997460597957122 ], [ 80.178846369413378, 12.998656613650382 ], [ 80.180296487307345, 12.999718355333618 ], [ 80.181845761383698, 13.000635596049721 ], [ 80.183479269733112, 13.001399500558088 ], [ 80.185181278581283, 13.002002710488808 ], [ 80.186935393898295, 13.002439415267645 ], [ 80.188724719388034, 13.002705408126532 ], [ 80.190532019332338, 13.002798126657995 ], [ 80.192339884716517, 13.002716677521533 ], [ 80.194130901031315, 13.002461845062767 ], [ 80.195887816129712, 13.002036083761816 ], [ 80.197593706516287, 13.00144349458351 ], [ 80.199232140462286, 13.000689785457697 ], [ 80.200787336370368, 12.999782216271154 ], [ 80.202244314859456, 12.998729528902448 ], [ 80.203589043100919, 12.99754186297527 ], [ 80.204808570013327, 12.996230658143975 ], [ 80.205891151011869, 12.994808543854756 ], [ 80.206826361109975, 12.993289217646801 ], [ 80.207605195284231, 12.99168731316821 ], [ 80.20822015513734, 12.990018259180399 ], [ 80.208665321026785, 12.988298130911312 ], [ 80.208936408968057, 12.986543495191416 ], [ 80.209030811768173, 12.984771250865675 ] ] ] } }
]
}
